[
    {
        "city": "Manila",
        "location": "Binondo",
        "zip": "1006"
    },
    {
        "city": "Manila",
        "location": "Intramuros",
        "zip": "1002"
    },
    {
        "city": "Manila",
        "location": "Malate",
        "zip": "1004"
    },
    {
        "city": "Manila",
        "location": "Manila CPO - Ermita",
        "zip": "1000"
    },
    {
        "city": "Manila",
        "location": "Paco",
        "zip": "1007"
    },
    {
        "city": "Manila",
        "location": "Pandacan",
        "zip": "1011"
    },
    {
        "city": "Manila",
        "location": "Port Area (South)",
        "zip": "1018"
    },
    {
        "city": "Manila",
        "location": "Quiapo",
        "zip": "1001"
    },
    {
        "city": "Manila",
        "location": "Sampaloc East",
        "zip": "1008"
    },
    {
        "city": "Manila",
        "location": "Sampaloc West",
        "zip": "1015"
    },
    {
        "city": "Manila",
        "location": "San Andres Bukid",
        "zip": "1017"
    },
    {
        "city": "Manila",
        "location": "San Miguel",
        "zip": "1005"
    },
    {
        "city": "Manila",
        "location": "San Nicolas",
        "zip": "1010"
    },
    {
        "city": "Manila",
        "location": "Sta. Ana",
        "zip": "1009"
    },
    {
        "city": "Manila",
        "location": "Sta. Cruz North",
        "zip": "1014"
    },
    {
        "city": "Manila",
        "location": "Sta. Cruz South",
        "zip": "1003"
    },
    {
        "city": "Manila",
        "location": "Sta. Mesa",
        "zip": "1016"
    },
    {
        "city": "Manila",
        "location": "Tondo North",
        "zip": "1013"
    },
    {
        "city": "Manila",
        "location": "Tondo South",
        "zip": "1012"
    },
    {
        "city": "Caloocan",
        "location": "Amparo Subdivision",
        "zip": "1425"
    },
    {
        "city": "Caloocan",
        "location": "Bagong Silang",
        "zip": "1428"
    },
    {
        "city": "Caloocan",
        "location": "Bagumbong/Pag-asa",
        "zip": "1421"
    },
    {
        "city": "Caloocan",
        "location": "Bankers Village",
        "zip": "1426"
    },
    {
        "city": "Caloocan",
        "location": "Capitol Parkland Subd.",
        "zip": "1424"
    },
    {
        "city": "Caloocan",
        "location": "Kaybiga/Deparo",
        "zip": "1420"
    },
    {
        "city": "Caloocan",
        "location": "Lilles Ville Subd.",
        "zip": "1423"
    },
    {
        "city": "Caloocan",
        "location": "Novaliches North",
        "zip": "1422"
    },
    {
        "city": "Caloocan",
        "location": "Tala Leprosarium",
        "zip": "1427"
    },
    {
        "city": "Caloocan",
        "location": "Victory Heights",
        "zip": "1427"
    },
    {
        "city": "Caloocan",
        "location": "1st to 7th Ave. West",
        "zip": "1405"
    },
    {
        "city": "Caloocan",
        "location": "Baesa",
        "zip": "1401"
    },
    {
        "city": "Caloocan",
        "location": "Fish Market",
        "zip": "1411"
    },
    {
        "city": "Caloocan",
        "location": "Grace Park East",
        "zip": "1403"
    },
    {
        "city": "Caloocan",
        "location": "Grace Park West",
        "zip": "1406"
    },
    {
        "city": "Caloocan",
        "location": "Isla de Cocomo",
        "zip": "1412"
    },
    {
        "city": "Caloocan",
        "location": "Kaloocan City CPO",
        "zip": "1400"
    },
    {
        "city": "Caloocan",
        "location": "Kapitbahayan East",
        "zip": "1413"
    },
    {
        "city": "Caloocan",
        "location": "Kanluran Village",
        "zip": "1409"
    },
    {
        "city": "Caloocan",
        "location": "Maypajo",
        "zip": "1410"
    },
    {
        "city": "Caloocan",
        "location": "San Jose",
        "zip": "1404"
    },
    {
        "city": "Caloocan",
        "location": "Sangandaan",
        "zip": "1408"
    },
    {
        "city": "Caloocan",
        "location": "Sta. Quiteria",
        "zip": "1402"
    },
    {
        "city": "Caloocan",
        "location": "University Hills",
        "zip": "1407"
    },
    {
        "city": "Las Pinas",
        "location": "Almanza",
        "zip": "1750"
    },
    {
        "city": "Las Pinas",
        "location": "Angela Village",
        "zip": "1749"
    },
    {
        "city": "Las Pinas",
        "location": "Cut-cut",
        "zip": "1743"
    },
    {
        "city": "Las Pinas",
        "location": "Gatchalian Subd.",
        "zip": "1745"
    },
    {
        "city": "Las Pinas",
        "location": "Las Pinas CPO",
        "zip": "1740"
    },
    {
        "city": "Las Pinas",
        "location": "Manila Doctor's Village",
        "zip": "1748"
    },
    {
        "city": "Las Pinas",
        "location": "Manuyo",
        "zip": "1744"
    },
    {
        "city": "Las Pinas",
        "location": "Remarville Subd.",
        "zip": "1741"
    },
    {
        "city": "Las Pinas",
        "location": "Soldiers Hills Subd.",
        "zip": "1752"
    },
    {
        "city": "Las Pinas",
        "location": "Talon Moonwalk",
        "zip": "1747"
    },
    {
        "city": "Las Pinas",
        "location": "T. S. Cruz Subd.",
        "zip": "1751"
    },
    {
        "city": "Las Pinas",
        "location": "Verdant Acres Subd.",
        "zip": "1746"
    },
    {
        "city": "Las Pinas",
        "location": "Pulang Lupa & Zapote",
        "zip": "1742"
    },
    {
        "city": "Las Pinas",
        "location": "Pulang Lupa",
        "zip": "1742"
    },
    {
        "city": "Makati",
        "location": "Ayala-Paseo de Roxas",
        "zip": "1226"
    },
    {
        "city": "Makati",
        "location": "Bangkal",
        "zip": "1233"
    },
    {
        "city": "Makati",
        "location": "Bel-air",
        "zip": "1209"
    },
    {
        "city": "Makati",
        "location": "Cembo",
        "zip": "1214"
    },
    {
        "city": "Makati",
        "location": "Comembo",
        "zip": "1217"
    },
    {
        "city": "Makati",
        "location": "Dasmarinas Village North",
        "zip": "1221"
    },
    {
        "city": "Makati",
        "location": "Dasmarinas Village South",
        "zip": "1222"
    },
    {
        "city": "Makati",
        "location": "Forbes Park North",
        "zip": "1219"
    },
    {
        "city": "Makati",
        "location": "Forbes Park South",
        "zip": "1220"
    },
    {
        "city": "Makati",
        "location": "Fort Bonifacio Naval Stn.",
        "zip": "1202"
    },
    {
        "city": "Makati",
        "location": "Fort Bonifacio (Camp)",
        "zip": "1201"
    },
    {
        "city": "Makati",
        "location": "Greenbelt",
        "zip": "1228"
    },
    {
        "city": "Makati",
        "location": "Guadalupe Nuevo",
        "zip": "1212"
    },
    {
        "city": "Makati",
        "location": "Guadalupe Viejo",
        "zip": "1211"
    },
    {
        "city": "Makati",
        "location": "Kasilawan",
        "zip": "1206"
    },
    {
        "city": "Makati",
        "location": "La Paz-Singkamas-Tejeros",
        "zip": "1204"
    },
    {
        "city": "Makati",
        "location": "Legaspi Village",
        "zip": "1229"
    },
    {
        "city": "Makati",
        "location": "Magallanes Village",
        "zip": "1232"
    },
    {
        "city": "Makati",
        "location": "Makati Commercial Ctr.",
        "zip": "1224"
    },
    {
        "city": "Makati",
        "location": "Makati CPO + Buendia Ave",
        "zip": "1200"
    },
    {
        "city": "Makati",
        "location": "Olympia & Carmona",
        "zip": "1207"
    },
    {
        "city": "Makati",
        "location": "Palanan",
        "zip": "1235"
    },
    {
        "city": "Makati",
        "location": "Pasong Tamo & Ecology Vill",
        "zip": "1231"
    },
    {
        "city": "Makati",
        "location": "Pembo",
        "zip": "1218"
    },
    {
        "city": "Makati",
        "location": "Pinagkaisahan-Pitogo",
        "zip": "1213"
    },
    {
        "city": "Makati",
        "location": "Pio del Pilar",
        "zip": "1230"
    },
    {
        "city": "Makati",
        "location": "Poblacion",
        "zip": "1210"
    },
    {
        "city": "Makati",
        "location": "Rembo (East)",
        "zip": "1216"
    },
    {
        "city": "Makati",
        "location": "Rembo (West)",
        "zip": "1215"
    },
    {
        "city": "Makati",
        "location": "Salcedo Village",
        "zip": "1227"
    },
    {
        "city": "Makati",
        "location": "San Antonio Village",
        "zip": "1203"
    },
    {
        "city": "Makati",
        "location": "San Isidro",
        "zip": "1234"
    },
    {
        "city": "Makati",
        "location": "San Lorenzo Village",
        "zip": "1223"
    },
    {
        "city": "Makati",
        "location": "Sta. Cruz",
        "zip": "1205"
    },
    {
        "city": "Makati",
        "location": "Urdaneta Village",
        "zip": "1225"
    },
    {
        "city": "Makati",
        "location": "Valenzuela",
        "zip": "1208"
    },
    {
        "city": "Makati",
        "location": "Santiago",
        "zip": "1208"
    },
    {
        "city": "Makati",
        "location": "Rizal",
        "zip": "1208"
    },
    {
        "city": "Malabon",
        "location": "Acacia",
        "zip": "1474"
    },
    {
        "city": "Malabon",
        "location": "Araneta Subdivision",
        "zip": "1476"
    },
    {
        "city": "Malabon",
        "location": "Dampalit",
        "zip": "1480"
    },
    {
        "city": "Malabon",
        "location": "Flores",
        "zip": "1471"
    },
    {
        "city": "Malabon",
        "location": "Kaunlaran Village",
        "zip": "1409"
    },
    {
        "city": "Malabon",
        "location": "Longos",
        "zip": "1472"
    },
    {
        "city": "Malabon",
        "location": "Malabon",
        "zip": "1470"
    },
    {
        "city": "Malabon",
        "location": "Maysilo",
        "zip": "1477"
    },
    {
        "city": "Malabon",
        "location": "Muzon",
        "zip": "1479"
    },
    {
        "city": "Malabon",
        "location": "Potrero",
        "zip": "1475"
    },
    {
        "city": "Malabon",
        "location": "Santolan",
        "zip": "1478"
    },
    {
        "city": "Malabon",
        "location": "Tonsuya",
        "zip": "1473"
    },
    {
        "city": "Mandaluyong",
        "location": "East Edsa",
        "zip": "1554"
    },
    {
        "city": "Mandaluyong",
        "location": "Greenhills South",
        "zip": "1556"
    },
    {
        "city": "Mandaluyong",
        "location": "Mandaluyong CPO",
        "zip": "1550"
    },
    {
        "city": "Mandaluyong",
        "location": "National Center for Mental Health",
        "zip": "1553"
    },
    {
        "city": "Mandaluyong",
        "location": "Shaw Boulevard",
        "zip": "1552"
    },
    {
        "city": "Mandaluyong",
        "location": "Vergara",
        "zip": "1551"
    },
    {
        "city": "Mandaluyong",
        "location": "Wack Wack Golf Club",
        "zip": "1555"
    },
    {
        "city": "Marikina",
        "location": "Bagong Nayon",
        "zip": "1820"
    },
    {
        "city": "Marikina",
        "location": "Barangka",
        "zip": "1803"
    },
    {
        "city": "Marikina",
        "location": "Cogeo",
        "zip": "1820"
    },
    {
        "city": "Marikina",
        "location": "Conception 1",
        "zip": "1807"
    },
    {
        "city": "Marikina",
        "location": "Conception 2",
        "zip": "1811"
    },
    {
        "city": "Marikina",
        "location": "Cupang",
        "zip": "1820"
    },
    {
        "city": "Marikina",
        "location": "Industrial Valley",
        "zip": "1802"
    },
    {
        "city": "Marikina",
        "location": "J de la Pena",
        "zip": "1804"
    },
    {
        "city": "Marikina",
        "location": "Langhaya",
        "zip": "1820"
    },
    {
        "city": "Marikina",
        "location": "Malanday",
        "zip": "1805"
    },
    {
        "city": "Marikina",
        "location": "Mambagat",
        "zip": "1820"
    },
    {
        "city": "Marikina",
        "location": "Marikina CPO",
        "zip": "1800"
    },
    {
        "city": "Marikina",
        "location": "Marikina Heights",
        "zip": "1810"
    },
    {
        "city": "Marikina",
        "location": "Mayamot",
        "zip": "1820"
    },
    {
        "city": "Marikina",
        "location": "Nangka",
        "zip": "1808"
    },
    {
        "city": "Marikina",
        "location": "North/West of Marikina River",
        "zip": "1806"
    },
    {
        "city": "Marikina",
        "location": "Parang",
        "zip": "1809"
    },
    {
        "city": "Marikina",
        "location": "San Roque-Calumpang",
        "zip": "1801"
    },
    {
        "city": "Marikina",
        "location": "Tañong",
        "zip": "1803"
    },
    {
        "city": "Muntinlupa",
        "location": "Ayala Alabang Subd.",
        "zip": "1780"
    },
    {
        "city": "Muntinlupa",
        "location": "Bayanan/Putatan",
        "zip": "1772"
    },
    {
        "city": "Muntinlupa",
        "location": "Bule/Cupang",
        "zip": "1771"
    },
    {
        "city": "Muntinlupa",
        "location": "Filinvest Corporate City",
        "zip": "1781"
    },
    {
        "city": "Muntinlupa",
        "location": "Muntinlupa CPO",
        "zip": "1770"
    },
    {
        "city": "Muntinlupa",
        "location": "Pearl Heights",
        "zip": "1775"
    },
    {
        "city": "Muntinlupa",
        "location": "Pleasant Village",
        "zip": "1777"
    },
    {
        "city": "Muntinlupa",
        "location": "Poblacion",
        "zip": "1776"
    },
    {
        "city": "Muntinlupa",
        "location": "Susana Heights",
        "zip": "1774"
    },
    {
        "city": "Muntinlupa",
        "location": "Tunasan",
        "zip": "1773"
    },
    {
        "city": "Muntinlupa",
        "location": "Ayala Alabang P.O. Boxes",
        "zip": "1799"
    },
    {
        "city": "Navotas",
        "location": "Fish Market",
        "zip": "1411"
    },
    {
        "city": "Navotas",
        "location": "Isla de Cocomo",
        "zip": "1412"
    },
    {
        "city": "Navotas",
        "location": "Kapitbahayan East",
        "zip": "1413"
    },
    {
        "city": "Navotas",
        "location": "Kaunlaran Village",
        "zip": "1409"
    },
    {
        "city": "Navotas",
        "location": "Navotas",
        "zip": "1485"
    },
    {
        "city": "Navotas",
        "location": "Tangos",
        "zip": "1489"
    },
    {
        "city": "Navotas",
        "location": "Tanza",
        "zip": "1490"
    },
    {
        "city": "Paranaque",
        "location": "Aeropark Subdivision",
        "zip": "1714"
    },
    {
        "city": "Paranaque",
        "location": "Baclaran",
        "zip": "1702"
    },
    {
        "city": "Paranaque",
        "location": "Better Living Subd.",
        "zip": "1711"
    },
    {
        "city": "Paranaque",
        "location": "BF Homes 1",
        "zip": "1720"
    },
    {
        "city": "Paranaque",
        "location": "BF Homes 2",
        "zip": "1718"
    },
    {
        "city": "Paranaque",
        "location": "Executive Heights Subd.",
        "zip": "1710"
    },
    {
        "city": "Paranaque",
        "location": "Ireneville 1 & 3",
        "zip": "1719"
    },
    {
        "city": "Paranaque",
        "location": "Ireneville 2",
        "zip": "1714"
    },
    {
        "city": "Paranaque",
        "location": "Manila Memorial Park",
        "zip": "1717"
    },
    {
        "city": "Paranaque",
        "location": "Marina Subd. (Reclamation)",
        "zip": "1703"
    },
    {
        "city": "Paranaque",
        "location": "Maywood 1",
        "zip": "1719"
    },
    {
        "city": "Paranaque",
        "location": "Maywood 2",
        "zip": "1716"
    },
    {
        "city": "Paranaque",
        "location": "Miramar Subd.",
        "zip": "1712"
    },
    {
        "city": "Paranaque",
        "location": "Multinational Subd.",
        "zip": "1708"
    },
    {
        "city": "Paranaque",
        "location": "NAIA (Airport)",
        "zip": "1705"
    },
    {
        "city": "Paranaque",
        "location": "Parañaque CPO",
        "zip": "1700"
    },
    {
        "city": "Paranaque",
        "location": "Pulo",
        "zip": "1706"
    },
    {
        "city": "Paranaque",
        "location": "San Antonio Valley 1",
        "zip": "1715"
    },
    {
        "city": "Paranaque",
        "location": "San Antonio Valley 11 & 12",
        "zip": "1707"
    },
    {
        "city": "Paranaque",
        "location": "Mervile Park Subd.",
        "zip": "1709"
    },
    {
        "city": "Paranaque",
        "location": "Moonwalk Subdivision",
        "zip": "1709"
    },
    {
        "city": "Paranaque",
        "location": "South Admiral Village",
        "zip": "1709"
    },
    {
        "city": "Paranaque",
        "location": "Santo Niño",
        "zip": "1704"
    },
    {
        "city": "Paranaque",
        "location": "Tambo",
        "zip": "1701"
    },
    {
        "city": "Paranaque",
        "location": "United Paranaque Subd.",
        "zip": "1713"
    },
    {
        "city": "Pasay City",
        "location": "Domestic Airport P.O.",
        "zip": "1301"
    },
    {
        "city": "Pasay City",
        "location": "Manila Bay Reclamation",
        "zip": "1308"
    },
    {
        "city": "Pasay City",
        "location": "Mall of Asia Complex (MOA)",
        "zip": "1300"
    },
    {
        "city": "Pasay City",
        "location": "Pasay City CPO - Malibay",
        "zip": "1300"
    },
    {
        "city": "Pasay City",
        "location": "PICC Reclamation Area",
        "zip": "1307"
    },
    {
        "city": "Pasay City",
        "location": "San Isidro",
        "zip": "1306"
    },
    {
        "city": "Pasay City",
        "location": "San Jose",
        "zip": "1305"
    },
    {
        "city": "Pasay City",
        "location": "San Rafael",
        "zip": "1302"
    },
    {
        "city": "Pasay City",
        "location": "San Roque",
        "zip": "1303"
    },
    {
        "city": "Pasay City",
        "location": "Sta. Clara",
        "zip": "1304"
    },
    {
        "city": "Pasay City",
        "location": "Villamor Airbase",
        "zip": "1309"
    },
    {
        "city": "Pasig",
        "location": "Caniogan",
        "zip": "1606"
    },
    {
        "city": "Pasig",
        "location": "Green Park",
        "zip": "1612"
    },
    {
        "city": "Pasig",
        "location": "Kapitolio",
        "zip": "1603"
    },
    {
        "city": "Pasig",
        "location": "Manggahan",
        "zip": "1611"
    },
    {
        "city": "Pasig",
        "location": "Maybunga",
        "zip": "1607"
    },
    {
        "city": "Pasig",
        "location": "Ortigas PO",
        "zip": "1605"
    },
    {
        "city": "Pasig",
        "location": "Pasig CPO",
        "zip": "1600"
    },
    {
        "city": "Pasig",
        "location": "Pinagbuhatan",
        "zip": "1602"
    },
    {
        "city": "Pasig",
        "location": "Rosario",
        "zip": "1609"
    },
    {
        "city": "Pasig",
        "location": "San Joaquin",
        "zip": "1601"
    },
    {
        "city": "Pasig",
        "location": "Santolan",
        "zip": "1610"
    },
    {
        "city": "Pasig",
        "location": "Sta. Lucia",
        "zip": "1608"
    },
    {
        "city": "Pasig",
        "location": "Ugong",
        "zip": "1604"
    },
    {
        "city": "Pateros",
        "location": "Aguho",
        "zip": "1620"
    },
    {
        "city": "Pateros",
        "location": "Sta. Ana",
        "zip": "1621"
    },
    {
        "city": "San Juan",
        "location": "Eisenhower-Crame",
        "zip": "1504"
    },
    {
        "city": "San Juan",
        "location": "Greenhills North",
        "zip": "1503"
    },
    {
        "city": "San Juan",
        "location": "Greenhills PO",
        "zip": "1502"
    },
    {
        "city": "San Juan",
        "location": "San Juan CPO",
        "zip": "1500"
    },
    {
        "city": "San Juan",
        "location": "Asian Development Bank",
        "zip": "401"
    },
    {
        "city": "San Juan",
        "location": "Bible Church on the Air",
        "zip": "420"
    },
    {
        "city": "San Juan",
        "location": "Int'l Correspondence School",
        "zip": "400"
    },
    {
        "city": "San Juan",
        "location": "Radio Bible Class",
        "zip": "410"
    },
    {
        "city": "Quezon City",
        "location": "Alicia",
        "zip": "1105"
    },
    {
        "city": "Quezon City",
        "location": "Amihan",
        "zip": "1102"
    },
    {
        "city": "Quezon City",
        "location": "Apolonio Samson",
        "zip": "1106"
    },
    {
        "city": "Quezon City",
        "location": "Baesa",
        "zip": "1106"
    },
    {
        "city": "Quezon City",
        "location": "Bagbag",
        "zip": "1116"
    },
    {
        "city": "Quezon City",
        "location": "Bagong Buhay",
        "zip": "1109"
    },
    {
        "city": "Quezon City",
        "location": "Bagong Lipunan",
        "zip": "1111"
    },
    {
        "city": "Quezon City",
        "location": "Bagong Pag-asa",
        "zip": "1105"
    },
    {
        "city": "Quezon City",
        "location": "Bagong Silangan",
        "zip": "1119"
    },
    {
        "city": "Quezon City",
        "location": "Bagong bayan",
        "zip": "1110"
    },
    {
        "city": "Quezon City",
        "location": "Bahay Toro",
        "zip": "1106"
    },
    {
        "city": "Quezon City",
        "location": "Balingasa",
        "zip": "1115"
    },
    {
        "city": "Quezon City",
        "location": "Balintawak",
        "zip": "1106"
    },
    {
        "city": "Quezon City",
        "location": "Balumbato",
        "zip": "1106"
    },
    {
        "city": "Quezon City",
        "location": "Batasan Hills",
        "zip": "1126"
    },
    {
        "city": "Quezon City",
        "location": "Bayanihan",
        "zip": "1109"
    },
    {
        "city": "Quezon City",
        "location": "BF Homes",
        "zip": "1120"
    },
    {
        "city": "Quezon City",
        "location": "Blue Ridge",
        "zip": "1109"
    },
    {
        "city": "Quezon City",
        "location": "Botocan",
        "zip": "1101"
    },
    {
        "city": "Quezon City",
        "location": "Bungad",
        "zip": "1105"
    },
    {
        "city": "Quezon City",
        "location": "Camp Aguinaldo",
        "zip": "1110"
    },
    {
        "city": "Quezon City",
        "location": "Capitol Hills/Park",
        "zip": "1126"
    },
    {
        "city": "Quezon City",
        "location": "Capri",
        "zip": "1117"
    },
    {
        "city": "Quezon City",
        "location": "Central",
        "zip": "1100"
    },
    {
        "city": "Quezon City",
        "location": "Claro",
        "zip": "1102"
    },
    {
        "city": "Quezon City",
        "location": "Commonwealth",
        "zip": "1121"
    },
    {
        "city": "Quezon City",
        "location": "Crame",
        "zip": "1111"
    },
    {
        "city": "Quezon City",
        "location": "Cubao",
        "zip": "1109"
    },
    {
        "city": "Quezon City",
        "location": "Culiat",
        "zip": "1128"
    },
    {
        "city": "Quezon City",
        "location": "Damar",
        "zip": "1115"
    },
    {
        "city": "Quezon City",
        "location": "Damayan",
        "zip": "1104"
    },
    {
        "city": "Quezon City",
        "location": "Damayan Lagi",
        "zip": "1112"
    },
    {
        "city": "Quezon City",
        "location": "Damong Maliit",
        "zip": "1123"
    },
    {
        "city": "Quezon City",
        "location": "Del Monte",
        "zip": "1105"
    },
    {
        "city": "Quezon City",
        "location": "Diliman",
        "zip": "1101"
    },
    {
        "city": "Quezon City",
        "location": "Dioquino Zobel",
        "zip": "1109"
    },
    {
        "city": "Quezon City",
        "location": "Don Manuel",
        "zip": "1113"
    },
    {
        "city": "Quezon City",
        "location": "Dona Aurora",
        "zip": "1113"
    },
    {
        "city": "Quezon City",
        "location": "Dona Faustina Subd.",
        "zip": "1125"
    },
    {
        "city": "Quezon City",
        "location": "Doña Imelda",
        "zip": "1113"
    },
    {
        "city": "Quezon City",
        "location": "Dona Josefa",
        "zip": "1113"
    },
    {
        "city": "Quezon City",
        "location": "Duyan-Duyan",
        "zip": "1102"
    },
    {
        "city": "Quezon City",
        "location": "E. Rodriguez",
        "zip": "1102"
    },
    {
        "city": "Quezon City",
        "location": "Escopa",
        "zip": "1109"
    },
    {
        "city": "Quezon City",
        "location": "Fairview",
        "zip": "1118"
    },
    {
        "city": "Quezon City",
        "location": "Fairview North",
        "zip": "1121"
    },
    {
        "city": "Quezon City",
        "location": "Fairview South",
        "zip": "1122"
    },
    {
        "city": "Quezon City",
        "location": "Gintong Silahis",
        "zip": "1114"
    },
    {
        "city": "Quezon City",
        "location": "Gulod",
        "zip": "1117"
    },
    {
        "city": "Quezon City",
        "location": "Holy Spirit",
        "zip": "1127"
    },
    {
        "city": "Quezon City",
        "location": "Horseshoe",
        "zip": "1112"
    },
    {
        "city": "Quezon City",
        "location": "Immaculate Conception",
        "zip": "1111"
    },
    {
        "city": "Quezon City",
        "location": "Kaligayahan",
        "zip": "1124"
    },
    {
        "city": "Quezon City",
        "location": "Kalusugan",
        "zip": "1112"
    },
    {
        "city": "Quezon City",
        "location": "Kamias",
        "zip": "1102"
    },
    {
        "city": "Quezon City",
        "location": "Kamuning",
        "zip": "1103"
    },
    {
        "city": "Quezon City",
        "location": "Katipunan",
        "zip": "1105"
    },
    {
        "city": "Quezon City",
        "location": "Kaunlaran",
        "zip": "1111"
    },
    {
        "city": "Quezon City",
        "location": "Kristong Hari",
        "zip": "1112"
    },
    {
        "city": "Quezon City",
        "location": "Krus na Ligas",
        "zip": "1101"
    },
    {
        "city": "Quezon City",
        "location": "Laging Handa",
        "zip": "1103"
    },
    {
        "city": "Quezon City",
        "location": "La Loma",
        "zip": "1114"
    },
    {
        "city": "Quezon City",
        "location": "Libis",
        "zip": "1110"
    },
    {
        "city": "Quezon City",
        "location": "Lourdes",
        "zip": "1114"
    },
    {
        "city": "Quezon City",
        "location": "Loyola Heights",
        "zip": "1108"
    },
    {
        "city": "Quezon City",
        "location": "Maharlica",
        "zip": "1114"
    },
    {
        "city": "Quezon City",
        "location": "Malaya",
        "zip": "1101"
    },
    {
        "city": "Quezon City",
        "location": "Mangga",
        "zip": "1109"
    },
    {
        "city": "Quezon City",
        "location": "Manresa",
        "zip": "1115"
    },
    {
        "city": "Quezon City",
        "location": "Mariana",
        "zip": "1112"
    },
    {
        "city": "Quezon City",
        "location": "Mariblo",
        "zip": "1104"
    },
    {
        "city": "Quezon City",
        "location": "Marilag",
        "zip": "1109"
    },
    {
        "city": "Quezon City",
        "location": "Masagana",
        "zip": "1109"
    },
    {
        "city": "Quezon City",
        "location": "Masambong",
        "zip": "1105"
    },
    {
        "city": "Quezon City",
        "location": "Matalahib",
        "zip": "1114"
    },
    {
        "city": "Quezon City",
        "location": "Matandang Balara",
        "zip": "1119"
    },
    {
        "city": "Quezon City",
        "location": "Milagrosa",
        "zip": "1109"
    },
    {
        "city": "Quezon City",
        "location": "Nagkaisang Nayaon",
        "zip": "1125"
    },
    {
        "city": "Quezon City",
        "location": "Nayon Kaunlaran",
        "zip": "1104"
    },
    {
        "city": "Quezon City",
        "location": "New Era",
        "zip": "1107"
    },
    {
        "city": "Quezon City",
        "location": "Novaliches Town Proper",
        "zip": "1123"
    },
    {
        "city": "Quezon City",
        "location": "Obrero",
        "zip": "1103"
    },
    {
        "city": "Quezon City",
        "location": "Old Capitol Site",
        "zip": "1101"
    },
    {
        "city": "Quezon City",
        "location": "Parang Bundok",
        "zip": "1114"
    },
    {
        "city": "Quezon City",
        "location": "Pag-Ibig sa Nayon",
        "zip": "1115"
    },
    {
        "city": "Quezon City",
        "location": "Paligsahan",
        "zip": "1103"
    },
    {
        "city": "Quezon City",
        "location": "Paltok",
        "zip": "1105"
    },
    {
        "city": "Quezon City",
        "location": "Pansol",
        "zip": "1108"
    },
    {
        "city": "Quezon City",
        "location": "Paraiso",
        "zip": "1104"
    },
    {
        "city": "Quezon City",
        "location": "Pasong Putik",
        "zip": "1118"
    },
    {
        "city": "Quezon City",
        "location": "Pasong Tamo",
        "zip": "1107"
    },
    {
        "city": "Quezon City",
        "location": "Payatas",
        "zip": "1119"
    },
    {
        "city": "Quezon City",
        "location": "Phil-Am / Philam",
        "zip": "1104"
    },
    {
        "city": "Quezon City",
        "location": "Pinagkaisahan",
        "zip": "1111"
    },
    {
        "city": "Quezon City",
        "location": "Piñahan",
        "zip": "1100"
    },
    {
        "city": "Quezon City",
        "location": "Project 4",
        "zip": "1109"
    },
    {
        "city": "Quezon City",
        "location": "Project 6",
        "zip": "1100"
    },
    {
        "city": "Quezon City",
        "location": "Project 7",
        "zip": "1105"
    },
    {
        "city": "Quezon City",
        "location": "Project 8",
        "zip": "1106"
    },
    {
        "city": "Quezon City",
        "location": "Quirino District/Project 2 & 3",
        "zip": "1102"
    },
    {
        "city": "Quezon City",
        "location": "Quezon City CPO",
        "zip": "1100"
    },
    {
        "city": "Quezon City",
        "location": "Ramon Magsaysay",
        "zip": "1105"
    },
    {
        "city": "Quezon City",
        "location": "Roxas District",
        "zip": "1103"
    },
    {
        "city": "Quezon City",
        "location": "Sacred Heart",
        "zip": "1103"
    },
    {
        "city": "Quezon City",
        "location": "San Martin de Porres",
        "zip": "1111"
    },
    {
        "city": "Quezon City",
        "location": "St. Ignatius",
        "zip": "1110"
    },
    {
        "city": "Quezon City",
        "location": "St. Peter",
        "zip": "1114"
    },
    {
        "city": "Quezon City",
        "location": "Salvacion",
        "zip": "1114"
    },
    {
        "city": "Quezon City",
        "location": "San Agustin",
        "zip": "1117"
    },
    {
        "city": "Quezon City",
        "location": "San Antonio",
        "zip": "1105"
    },
    {
        "city": "Quezon City",
        "location": "San Bartolome",
        "zip": "1116"
    },
    {
        "city": "Quezon City",
        "location": "Sangandaan",
        "zip": "1116"
    },
    {
        "city": "Quezon City",
        "location": "San Isidro",
        "zip": "1113"
    },
    {
        "city": "Quezon City",
        "location": "San Isidro Labrador",
        "zip": "1114"
    },
    {
        "city": "Quezon City",
        "location": "San Jose",
        "zip": "1115"
    },
    {
        "city": "Quezon City",
        "location": "San Roque",
        "zip": "1109"
    },
    {
        "city": "Quezon City",
        "location": "San Vicente",
        "zip": "1101"
    },
    {
        "city": "Quezon City",
        "location": "Santa Cruz",
        "zip": "1104"
    },
    {
        "city": "Quezon City",
        "location": "Santa Lucia",
        "zip": "1117"
    },
    {
        "city": "Quezon City",
        "location": "Santa Monica",
        "zip": "1117"
    },
    {
        "city": "Quezon City",
        "location": "Santa Teresita",
        "zip": "1114"
    },
    {
        "city": "Quezon City",
        "location": "Santol",
        "zip": "1113"
    },
    {
        "city": "Quezon City",
        "location": "Sto. Cristo",
        "zip": "1105"
    },
    {
        "city": "Quezon City",
        "location": "Santo Nino",
        "zip": "1113"
    },
    {
        "city": "Quezon City",
        "location": "Sauyo",
        "zip": "1116"
    },
    {
        "city": "Quezon City",
        "location": "Sienna",
        "zip": "1114"
    },
    {
        "city": "Quezon City",
        "location": "Sikatuna Village",
        "zip": "1101"
    },
    {
        "city": "Quezon City",
        "location": "Silangan",
        "zip": "1102"
    },
    {
        "city": "Quezon City",
        "location": "Socorro",
        "zip": "1109"
    },
    {
        "city": "Quezon City",
        "location": "South Triangle",
        "zip": "1103"
    },
    {
        "city": "Quezon City",
        "location": "Tagumpay",
        "zip": "1109"
    },
    {
        "city": "Quezon City",
        "location": "Talampas",
        "zip": "1110"
    },
    {
        "city": "Quezon City",
        "location": "Talayan",
        "zip": "1104"
    },
    {
        "city": "Quezon City",
        "location": "Talipapa",
        "zip": "1116"
    },
    {
        "city": "Quezon City",
        "location": "Tandang Sora",
        "zip": "1116"
    },
    {
        "city": "Quezon City",
        "location": "Tatalon",
        "zip": "1113"
    },
    {
        "city": "Quezon City",
        "location": "Teachers Village",
        "zip": "1101"
    },
    {
        "city": "Quezon City",
        "location": "Ugong Norte",
        "zip": "1110"
    },
    {
        "city": "Quezon City",
        "location": "Unang Sigaw",
        "zip": "1106"
    },
    {
        "city": "Quezon City",
        "location": "University of the Philippines",
        "zip": "1101"
    },
    {
        "city": "Quezon City",
        "location": "UP Village",
        "zip": "1101"
    },
    {
        "city": "Quezon City",
        "location": "Valencia",
        "zip": "1112"
    },
    {
        "city": "Quezon City",
        "location": "Vasra",
        "zip": "1128"
    },
    {
        "city": "Quezon City",
        "location": "Veterans Village",
        "zip": "1105"
    },
    {
        "city": "Quezon City",
        "location": "Villa Maria Clara",
        "zip": "1109"
    },
    {
        "city": "Quezon City",
        "location": "Violago Homes",
        "zip": "1120"
    },
    {
        "city": "Quezon City",
        "location": "West Triangle",
        "zip": "1104"
    },
    {
        "city": "Quezon City",
        "location": "White Plains",
        "zip": "1110"
    },
    {
        "city": "Taguig",
        "location": "Bay Breeze Village",
        "zip": "1636"
    },
    {
        "city": "Taguig",
        "location": "Bicutan",
        "zip": "1631"
    },
    {
        "city": "Taguig",
        "location": "Lower Bicutan",
        "zip": "1632"
    },
    {
        "city": "Taguig",
        "location": "Upper Bicutan",
        "zip": "1633"
    },
    {
        "city": "Taguig",
        "location": "Western Bicutan",
        "zip": "1630"
    },
    {
        "city": "Taguig",
        "location": "Ligid",
        "zip": "1638"
    },
    {
        "city": "Taguig",
        "location": "Nichols-Mckinley",
        "zip": "1634"
    },
    {
        "city": "Taguig",
        "location": "Tukukan",
        "zip": "1637"
    },
    {
        "city": "Valenzuela",
        "location": "Arkong Bato",
        "zip": "1444"
    },
    {
        "city": "Valenzuela",
        "location": "Rincon",
        "zip": "1444"
    },
    {
        "city": "Valenzuela",
        "location": "Pasolo",
        "zip": "1444"
    },
    {
        "city": "Valenzuela",
        "location": "Malanday",
        "zip": "1444"
    },
    {
        "city": "Valenzuela",
        "location": "Mabolo",
        "zip": "1444"
    },
    {
        "city": "Valenzuela",
        "location": "Polo ",
        "zip": "1444"
    },
    {
        "city": "Valenzuela",
        "location": "Balangkas",
        "zip": "1445"
    },
    {
        "city": "Valenzuela",
        "location": "Caloong",
        "zip": "1445"
    },
    {
        "city": "Valenzuela",
        "location": "Dalandan West",
        "zip": "1443"
    },
    {
        "city": "Valenzuela",
        "location": "Canumay",
        "zip": "1443"
    },
    {
        "city": "Valenzuela",
        "location": "East Canumay",
        "zip": "1447"
    },
    {
        "city": "Valenzuela",
        "location": "Lawang Bato Punturin",
        "zip": "1447"
    },
    {
        "city": "Valenzuela",
        "location": "Fortune Village",
        "zip": "1442"
    },
    {
        "city": "Valenzuela",
        "location": "Paseo de Blas",
        "zip": "1442"
    },
    {
        "city": "Valenzuela",
        "location": "Gen. T de Leon",
        "zip": "1442"
    },
    {
        "city": "Valenzuela",
        "location": "Karuhatan",
        "zip": "1441"
    },
    {
        "city": "Valenzuela",
        "location": "Lingunan",
        "zip": "1446"
    },
    {
        "city": "Valenzuela",
        "location": "Mapulang Lupa",
        "zip": "1448"
    },
    {
        "city": "Valenzuela",
        "location": "Valenzuela CPO",
        "zip": "1440"
    },
    {
        "city": "Valenzuela",
        "location": "Malinta",
        "zip": "1440"
    },
    {
        "city": "Valenzuela",
        "location": "Valenzuela P.O. Boxes",
        "zip": "1496"
    },
    {
        "city": "Valenzuela",
        "location": "Far Eastern Broadcasting",
        "zip": "560"
    },
    {
        "city": "Valenzuela",
        "location": "Feblas Col. of Bible",
        "zip": "550"
    },
    {
        "city": "Abra",
        "location": "Bangued",
        "zip": "2800"
    },
    {
        "city": "Abra",
        "location": "Boliney",
        "zip": "2815"
    },
    {
        "city": "Abra",
        "location": "Bucay",
        "zip": "2805"
    },
    {
        "city": "Abra",
        "location": "Bucloc",
        "zip": "2817"
    },
    {
        "city": "Abra",
        "location": "Daguioman",
        "zip": "2816"
    },
    {
        "city": "Abra",
        "location": "Danglas",
        "zip": "2825"
    },
    {
        "city": "Abra",
        "location": "Dolores",
        "zip": "2801"
    },
    {
        "city": "Abra",
        "location": "Lacub",
        "zip": "2821"
    },
    {
        "city": "Abra",
        "location": "Langagilang",
        "zip": "2802"
    },
    {
        "city": "Abra",
        "location": "Lagayan",
        "zip": "2824"
    },
    {
        "city": "Abra",
        "location": "Langiden",
        "zip": "2807"
    },
    {
        "city": "Abra",
        "location": "La Paz",
        "zip": "2826"
    },
    {
        "city": "Abra",
        "location": "Licuan (Baay)",
        "zip": "2819"
    },
    {
        "city": "Abra",
        "location": "Luba",
        "zip": "2813"
    },
    {
        "city": "Abra",
        "location": "Malibcong",
        "zip": "2820"
    },
    {
        "city": "Abra",
        "location": "Manabo",
        "zip": "2810"
    },
    {
        "city": "Abra",
        "location": "Peñarubia",
        "zip": "2804"
    },
    {
        "city": "Abra",
        "location": "Pidigan",
        "zip": "2806"
    },
    {
        "city": "Abra",
        "location": "Pilar",
        "zip": "2812"
    },
    {
        "city": "Abra",
        "location": "Sal-Lapadan",
        "zip": "2818"
    },
    {
        "city": "Abra",
        "location": "San Isidro",
        "zip": "2809"
    },
    {
        "city": "Abra",
        "location": "San Juan",
        "zip": "2823"
    },
    {
        "city": "Abra",
        "location": "San Quintin",
        "zip": "2808"
    },
    {
        "city": "Abra",
        "location": "Tayum",
        "zip": "2803"
    },
    {
        "city": "Abra",
        "location": "Tineg",
        "zip": "2822"
    },
    {
        "city": "Abra",
        "location": "Tubo",
        "zip": "2814"
    },
    {
        "city": "Abra",
        "location": "Villaviciosa",
        "zip": "2811"
    },
    {
        "city": "Albay",
        "location": "Bacacay",
        "zip": "4509"
    },
    {
        "city": "Albay",
        "location": "Camalig",
        "zip": "4502"
    },
    {
        "city": "Albay",
        "location": "Daraga (Locsin)",
        "zip": "4501"
    },
    {
        "city": "Albay",
        "location": "Guinobatan",
        "zip": "4503"
    },
    {
        "city": "Albay",
        "location": "Jovellar",
        "zip": "4515"
    },
    {
        "city": "Albay",
        "location": "Legaspi City",
        "zip": "4500"
    },
    {
        "city": "Albay",
        "location": "Libon",
        "zip": "4507"
    },
    {
        "city": "Albay",
        "location": "Ligao",
        "zip": "4504"
    },
    {
        "city": "Albay",
        "location": "Malilipot",
        "zip": "4510"
    },
    {
        "city": "Albay",
        "location": "Malinao",
        "zip": "4512"
    },
    {
        "city": "Albay",
        "location": "Manito",
        "zip": "4514"
    },
    {
        "city": "Albay",
        "location": "Oas",
        "zip": "4504"
    },
    {
        "city": "Albay",
        "location": "Pio Duran (Malacbalac)",
        "zip": "4516"
    },
    {
        "city": "Albay",
        "location": "Polangui",
        "zip": "4506"
    },
    {
        "city": "Albay",
        "location": "Rapu-rapu",
        "zip": "4517"
    },
    {
        "city": "Albay",
        "location": "Sto. Domingo",
        "zip": "4508"
    },
    {
        "city": "Albay",
        "location": "Tabaco",
        "zip": "4511"
    },
    {
        "city": "Albay",
        "location": "Tiwi",
        "zip": "4513"
    },
    {
        "city": "Aurora",
        "location": "Baler",
        "zip": "3200"
    },
    {
        "city": "Aurora",
        "location": "Casiguran",
        "zip": "3204"
    },
    {
        "city": "Aurora",
        "location": "Dilasag",
        "zip": "3205"
    },
    {
        "city": "Aurora",
        "location": "Dinalungan",
        "zip": "3206"
    },
    {
        "city": "Aurora",
        "location": "Dingalan",
        "zip": "3207"
    },
    {
        "city": "Aurora",
        "location": "Dipaculao",
        "zip": "3203"
    },
    {
        "city": "Aurora",
        "location": "Maria Aurora",
        "zip": "3202"
    },
    {
        "city": "Aurora",
        "location": "San Luis",
        "zip": "3201"
    },
    {
        "city": "Bataan",
        "location": "Bucay",
        "zip": "2114"
    },
    {
        "city": "Bataan",
        "location": "Bagac",
        "zip": "2107"
    },
    {
        "city": "Bataan",
        "location": "Balanga",
        "zip": "2100"
    },
    {
        "city": "Bataan",
        "location": "Mariveles",
        "zip": "2106"
    },
    {
        "city": "Bataan",
        "location": "Dinalupihan",
        "zip": "2110"
    },
    {
        "city": "Bataan",
        "location": "Hermosa",
        "zip": "2111"
    },
    {
        "city": "Bataan",
        "location": "Lamao",
        "zip": "2104"
    },
    {
        "city": "Bataan",
        "location": "Limay",
        "zip": "2103"
    },
    {
        "city": "Bataan",
        "location": "Mariveles",
        "zip": "2105"
    },
    {
        "city": "Bataan",
        "location": "Morong",
        "zip": "2108"
    },
    {
        "city": "Bataan",
        "location": "Orani",
        "zip": "2112"
    },
    {
        "city": "Bataan",
        "location": "Orion",
        "zip": "2102"
    },
    {
        "city": "Bataan",
        "location": "Pilar",
        "zip": "2101"
    },
    {
        "city": "Bataan",
        "location": "Morong",
        "zip": "2109"
    },
    {
        "city": "Bataan",
        "location": "Samal",
        "zip": "2113"
    },
    {
        "city": "Batanes",
        "location": "Basco",
        "zip": "3900"
    },
    {
        "city": "Batanes",
        "location": "Itbayat",
        "zip": "3905"
    },
    {
        "city": "Batanes",
        "location": "Ivana",
        "zip": "3902"
    },
    {
        "city": "Batanes",
        "location": "Mahatao",
        "zip": "3901"
    },
    {
        "city": "Batanes",
        "location": "Sabtang",
        "zip": "3904"
    },
    {
        "city": "Batanes",
        "location": "Uyugan",
        "zip": "3903"
    },
    {
        "city": "Batangas",
        "location": "Agoncillo",
        "zip": "4211"
    },
    {
        "city": "Batangas",
        "location": "Alitagtag",
        "zip": "4205"
    },
    {
        "city": "Batangas",
        "location": "Balayan",
        "zip": "4213"
    },
    {
        "city": "Batangas",
        "location": "Balite",
        "zip": "4219"
    },
    {
        "city": "Batangas",
        "location": "Batangas City",
        "zip": "4200"
    },
    {
        "city": "Batangas",
        "location": "Bauan",
        "zip": "4201"
    },
    {
        "city": "Batangas",
        "location": "Calaca",
        "zip": "4212"
    },
    {
        "city": "Batangas",
        "location": "Calatagan",
        "zip": "4215"
    },
    {
        "city": "Batangas",
        "location": "Cuenca",
        "zip": "4222"
    },
    {
        "city": "Batangas",
        "location": "Fernando Air Base",
        "zip": "4218"
    },
    {
        "city": "Batangas",
        "location": "Ibaan",
        "zip": "4230"
    },
    {
        "city": "Batangas",
        "location": "Laurel",
        "zip": "4221"
    },
    {
        "city": "Batangas",
        "location": "Lemery",
        "zip": "4209"
    },
    {
        "city": "Batangas",
        "location": "Lian",
        "zip": "4216"
    },
    {
        "city": "Batangas",
        "location": "Lipa City",
        "zip": "4217"
    },
    {
        "city": "Batangas",
        "location": "Lobo",
        "zip": "4229"
    },
    {
        "city": "Batangas",
        "location": "Mabini",
        "zip": "4202"
    },
    {
        "city": "Batangas",
        "location": "Malvar",
        "zip": "4233"
    },
    {
        "city": "Batangas",
        "location": "Mataas na Kahoy",
        "zip": "4223"
    },
    {
        "city": "Batangas",
        "location": "Nasugbu",
        "zip": "4231"
    },
    {
        "city": "Batangas",
        "location": "Padre Garcia",
        "zip": "4224"
    },
    {
        "city": "Batangas",
        "location": "Rosario",
        "zip": "4225"
    },
    {
        "city": "Batangas",
        "location": "San Jose",
        "zip": "4227"
    },
    {
        "city": "Batangas",
        "location": "San Juan",
        "zip": "4226"
    },
    {
        "city": "Batangas",
        "location": "San Luis",
        "zip": "4210"
    },
    {
        "city": "Batangas",
        "location": "San Nicolas",
        "zip": "4207"
    },
    {
        "city": "Batangas",
        "location": "San Pascual",
        "zip": "4204"
    },
    {
        "city": "Batangas",
        "location": "Santa Teresita",
        "zip": "4206"
    },
    {
        "city": "Batangas",
        "location": "Santo Tomas",
        "zip": "4234"
    },
    {
        "city": "Batangas",
        "location": "Taal",
        "zip": "4208"
    },
    {
        "city": "Batangas",
        "location": "Talisay",
        "zip": "4220"
    },
    {
        "city": "Batangas",
        "location": "Tanauan",
        "zip": "4232"
    },
    {
        "city": "Batangas",
        "location": "Taysan",
        "zip": "4228"
    },
    {
        "city": "Batangas",
        "location": "Tingloy",
        "zip": "4203"
    },
    {
        "city": "Batangas",
        "location": "Uy",
        "zip": "4214"
    },
    {
        "city": "Benguet",
        "location": "Atok",
        "zip": "2612"
    },
    {
        "city": "Benguet",
        "location": "Baguio City",
        "zip": "2600"
    },
    {
        "city": "Benguet",
        "location": "Bakun",
        "zip": "2610"
    },
    {
        "city": "Benguet",
        "location": "Bokod",
        "zip": "2605"
    },
    {
        "city": "Benguet",
        "location": "Bugias",
        "zip": "2607"
    },
    {
        "city": "Benguet",
        "location": "Itogon",
        "zip": "2604"
    },
    {
        "city": "Benguet",
        "location": "Kabayan",
        "zip": "2606"
    },
    {
        "city": "Benguet",
        "location": "Kapangan",
        "zip": "2613"
    },
    {
        "city": "Benguet",
        "location": "Kibungan",
        "zip": "2611"
    },
    {
        "city": "Benguet",
        "location": "La Trinidad",
        "zip": "2601"
    },
    {
        "city": "Benguet",
        "location": "Lepanto",
        "zip": "2609"
    },
    {
        "city": "Benguet",
        "location": "Mankayan",
        "zip": "2608"
    },
    {
        "city": "Benguet",
        "location": "Philippine Military Academy (PMA)",
        "zip": "2602"
    },
    {
        "city": "Benguet",
        "location": "Sablan",
        "zip": "2614"
    },
    {
        "city": "Benguet",
        "location": "Tuba",
        "zip": "2603"
    },
    {
        "city": "Benguet",
        "location": "Tublay",
        "zip": "2615"
    },
    {
        "city": "Bulacan",
        "location": "Angat",
        "zip": "3012"
    },
    {
        "city": "Bulacan",
        "location": "Balagtas",
        "zip": "3016"
    },
    {
        "city": "Bulacan",
        "location": "Baliuag",
        "zip": "3006"
    },
    {
        "city": "Bulacan",
        "location": "Bocaue",
        "zip": "3018"
    },
    {
        "city": "Bulacan",
        "location": "Bulacan",
        "zip": "3017"
    },
    {
        "city": "Bulacan",
        "location": "Bustos",
        "zip": "3007"
    },
    {
        "city": "Bulacan",
        "location": "Calumpit",
        "zip": "3003"
    },
    {
        "city": "Bulacan",
        "location": "Dona Remedios Trinidad",
        "zip": "3009"
    },
    {
        "city": "Bulacan",
        "location": "Guiguinto",
        "zip": "3015"
    },
    {
        "city": "Bulacan",
        "location": "Hagonoy",
        "zip": "3002"
    },
    {
        "city": "Bulacan",
        "location": "Malolos",
        "zip": "3000"
    },
    {
        "city": "Bulacan",
        "location": "Marilao",
        "zip": "3019"
    },
    {
        "city": "Bulacan",
        "location": "Maycauayan",
        "zip": "3020"
    },
    {
        "city": "Bulacan",
        "location": "Norzagaray",
        "zip": "3013"
    },
    {
        "city": "Bulacan",
        "location": "Obando",
        "zip": "3021"
    },
    {
        "city": "Bulacan",
        "location": "Pandi",
        "zip": "3014"
    },
    {
        "city": "Bulacan",
        "location": "Paombong",
        "zip": "3001"
    },
    {
        "city": "Bulacan",
        "location": "Plaridel",
        "zip": "3004"
    },
    {
        "city": "Bulacan",
        "location": "Pulilan",
        "zip": "3005"
    },
    {
        "city": "Bulacan",
        "location": "San Ildefonso",
        "zip": "3010"
    },
    {
        "city": "Bulacan",
        "location": "San Jose del Monte",
        "zip": "3023"
    },
    {
        "city": "Bulacan",
        "location": "San Miguel",
        "zip": "3011"
    },
    {
        "city": "Bulacan",
        "location": "San Rafael",
        "zip": "3008"
    },
    {
        "city": "Bulacan",
        "location": "Santa Maria",
        "zip": "3022"
    },
    {
        "city": "Bulacan",
        "location": "Sapang Palay",
        "zip": "3024"
    },
    {
        "city": "Cagayan",
        "location": "Abulog",
        "zip": "3517"
    },
    {
        "city": "Cagayan",
        "location": "Alcala",
        "zip": "3506"
    },
    {
        "city": "Cagayan",
        "location": "Allacapan",
        "zip": "3523"
    },
    {
        "city": "Cagayan",
        "location": "Amulung",
        "zip": "3505"
    },
    {
        "city": "Cagayan",
        "location": "Aparri",
        "zip": "3515"
    },
    {
        "city": "Cagayan",
        "location": "Baggao",
        "zip": "3506"
    },
    {
        "city": "Cagayan",
        "location": "Ballesteros",
        "zip": "3516"
    },
    {
        "city": "Cagayan",
        "location": "Buguey",
        "zip": "3511"
    },
    {
        "city": "Cagayan",
        "location": "Calayan",
        "zip": "3520"
    },
    {
        "city": "Cagayan",
        "location": "Camalaniugan",
        "zip": "3510"
    },
    {
        "city": "Cagayan",
        "location": "Claveria",
        "zip": "3519"
    },
    {
        "city": "Cagayan",
        "location": "Enrile",
        "zip": "3501"
    },
    {
        "city": "Cagayan",
        "location": "Gattaran",
        "zip": "3508"
    },
    {
        "city": "Cagayan",
        "location": "Gonzaga",
        "zip": "3511"
    },
    {
        "city": "Cagayan",
        "location": "Iguig",
        "zip": "3504"
    },
    {
        "city": "Cagayan",
        "location": "Lal-lo",
        "zip": "3509"
    },
    {
        "city": "Cagayan",
        "location": "Lasam",
        "zip": "3524"
    },
    {
        "city": "Cagayan",
        "location": "Pamplona",
        "zip": "3522"
    },
    {
        "city": "Cagayan",
        "location": "Penablanca",
        "zip": "3502"
    },
    {
        "city": "Cagayan",
        "location": "Piat",
        "zip": "3527"
    },
    {
        "city": "Cagayan",
        "location": "Rizal",
        "zip": "3526"
    },
    {
        "city": "Cagayan",
        "location": "Sanchez Mira",
        "zip": "3518"
    },
    {
        "city": "Cagayan",
        "location": "Santa Ana",
        "zip": "3514"
    },
    {
        "city": "Cagayan",
        "location": "Santa Praxedes",
        "zip": "3521"
    },
    {
        "city": "Cagayan",
        "location": "Santa Teresita",
        "zip": "3512"
    },
    {
        "city": "Cagayan",
        "location": "Santo Nino",
        "zip": "3525"
    },
    {
        "city": "Cagayan",
        "location": "Solana",
        "zip": "3503"
    },
    {
        "city": "Cagayan",
        "location": "Tuao",
        "zip": "3528"
    },
    {
        "city": "Cagayan",
        "location": "Tuguegarao",
        "zip": "3500"
    },
    {
        "city": "Camarines Norte",
        "location": "Basud",
        "zip": "4608"
    },
    {
        "city": "Camarines Norte",
        "location": "Capalonga",
        "zip": "4606"
    },
    {
        "city": "Camarines Norte",
        "location": "Daet",
        "zip": "4600"
    },
    {
        "city": "Camarines Norte",
        "location": "Imelda",
        "zip": "4610"
    },
    {
        "city": "Camarines Norte",
        "location": "Jose Panganiban",
        "zip": "4606"
    },
    {
        "city": "Camarines Norte",
        "location": "Labo",
        "zip": "4604"
    },
    {
        "city": "Camarines Norte",
        "location": "Mercedez",
        "zip": "4601"
    },
    {
        "city": "Camarines Norte",
        "location": "Paracale",
        "zip": "4605"
    },
    {
        "city": "Camarines Norte",
        "location": "San Vicente",
        "zip": "4609"
    },
    {
        "city": "Camarines Norte",
        "location": "Santa Elena",
        "zip": "4611"
    },
    {
        "city": "Camarines Norte",
        "location": "Talisay",
        "zip": "4602"
    },
    {
        "city": "Camarines Norte",
        "location": "Vinzons",
        "zip": "4603"
    },
    {
        "city": "Camarines Norte",
        "location": "Tulay na Lupa",
        "zip": "4612"
    },
    {
        "city": "Camarines Sur",
        "location": "Baao",
        "zip": "4432"
    },
    {
        "city": "Camarines Sur",
        "location": "Balatan",
        "zip": "4436"
    },
    {
        "city": "Camarines Sur",
        "location": "Bato",
        "zip": "4435"
    },
    {
        "city": "Camarines Sur",
        "location": "Bombon",
        "zip": "4404"
    },
    {
        "city": "Camarines Sur",
        "location": "Buhi",
        "zip": "4433"
    },
    {
        "city": "Camarines Sur",
        "location": "Bula",
        "zip": "4430"
    },
    {
        "city": "Camarines Sur",
        "location": "Cabusao",
        "zip": "4406"
    },
    {
        "city": "Camarines Sur",
        "location": "Calabanga",
        "zip": "4405"
    },
    {
        "city": "Camarines Sur",
        "location": "Camaligan",
        "zip": "4401"
    },
    {
        "city": "Camarines Sur",
        "location": "Canaman",
        "zip": "4402"
    },
    {
        "city": "Camarines Sur",
        "location": "Caramoan",
        "zip": "4429"
    },
    {
        "city": "Camarines Sur",
        "location": "Del Gallego",
        "zip": "4411"
    },
    {
        "city": "Camarines Sur",
        "location": "Gainza",
        "zip": "4412"
    },
    {
        "city": "Camarines Sur",
        "location": "Garchitorena",
        "zip": "4428"
    },
    {
        "city": "Camarines Sur",
        "location": "Goa",
        "zip": "4422"
    },
    {
        "city": "Camarines Sur",
        "location": "Iriga City",
        "zip": "4431"
    },
    {
        "city": "Camarines Sur",
        "location": "Lagunoy",
        "zip": "4425"
    },
    {
        "city": "Camarines Sur",
        "location": "Libmanan",
        "zip": "4407"
    },
    {
        "city": "Camarines Sur",
        "location": "Lupi",
        "zip": "4409"
    },
    {
        "city": "Camarines Sur",
        "location": "Magarao",
        "zip": "4403"
    },
    {
        "city": "Camarines Sur",
        "location": "Milaor",
        "zip": "4413"
    },
    {
        "city": "Camarines Sur",
        "location": "Minalabac",
        "zip": "4414"
    },
    {
        "city": "Camarines Sur",
        "location": "Nabua",
        "zip": "4434"
    },
    {
        "city": "Camarines Sur",
        "location": "Naga City",
        "zip": "4400"
    },
    {
        "city": "Camarines Sur",
        "location": "Ocampo",
        "zip": "4419"
    },
    {
        "city": "Camarines Sur",
        "location": "Pamplona",
        "zip": "4416"
    },
    {
        "city": "Camarines Sur",
        "location": "Pasacao",
        "zip": "4417"
    },
    {
        "city": "Camarines Sur",
        "location": "Pili",
        "zip": "4418"
    },
    {
        "city": "Camarines Sur",
        "location": "Presentacion",
        "zip": "4424"
    },
    {
        "city": "Camarines Sur",
        "location": "Ragay",
        "zip": "4410"
    },
    {
        "city": "Camarines Sur",
        "location": "Sagnay",
        "zip": "4421"
    },
    {
        "city": "Camarines Sur",
        "location": "San Fernando",
        "zip": "4415"
    },
    {
        "city": "Camarines Sur",
        "location": "San Jose",
        "zip": "4423"
    },
    {
        "city": "Camarines Sur",
        "location": "Sipocot",
        "zip": "4408"
    },
    {
        "city": "Camarines Sur",
        "location": "Siruma",
        "zip": "4427"
    },
    {
        "city": "Camarines Sur",
        "location": "Tigaon",
        "zip": "4420"
    },
    {
        "city": "Camarines Sur",
        "location": "Tinambac",
        "zip": "4426"
    },
    {
        "city": "Catanduanes",
        "location": "Bagamanoc",
        "zip": "4807"
    },
    {
        "city": "Catanduanes",
        "location": "Baras",
        "zip": "4803"
    },
    {
        "city": "Catanduanes",
        "location": "Bato",
        "zip": "4801"
    },
    {
        "city": "Catanduanes",
        "location": "Caramoran",
        "zip": "4808"
    },
    {
        "city": "Catanduanes",
        "location": "Gigmoto",
        "zip": "4804"
    },
    {
        "city": "Catanduanes",
        "location": "Pandan",
        "zip": "4809"
    },
    {
        "city": "Catanduanes",
        "location": "Panganiban",
        "zip": "4806"
    },
    {
        "city": "Catanduanes",
        "location": "San Andres",
        "zip": "4810"
    },
    {
        "city": "Catanduanes",
        "location": "San Miguel",
        "zip": "4802"
    },
    {
        "city": "Catanduanes",
        "location": "Viga",
        "zip": "4805"
    },
    {
        "city": "Catanduanes",
        "location": "Virac",
        "zip": "4800"
    },
    {
        "city": "Cavite",
        "location": "Alfonso",
        "zip": "4123"
    },
    {
        "city": "Cavite",
        "location": "Amadeo",
        "zip": "4119"
    },
    {
        "city": "Cavite",
        "location": "Bacoor",
        "zip": "4102"
    },
    {
        "city": "Cavite",
        "location": "Carmona",
        "zip": "4116"
    },
    {
        "city": "Cavite",
        "location": "Cavite City",
        "zip": "4100"
    },
    {
        "city": "Cavite",
        "location": "Cavite Naval Base",
        "zip": "4101"
    },
    {
        "city": "Cavite",
        "location": "Corregidor",
        "zip": "4125"
    },
    {
        "city": "Cavite",
        "location": "Dasmarinias",
        "zip": "4114"
    },
    {
        "city": "Cavite",
        "location": "Dasmarinias Resettlement Area",
        "zip": "4115"
    },
    {
        "city": "Cavite",
        "location": "Gen. Aguinaldo",
        "zip": "4124"
    },
    {
        "city": "Cavite",
        "location": "Gen. Mariano Alvarez",
        "zip": "4117"
    },
    {
        "city": "Cavite",
        "location": "Gen. Trias",
        "zip": "4107"
    },
    {
        "city": "Cavite",
        "location": "Imus",
        "zip": "4103"
    },
    {
        "city": "Cavite",
        "location": "Indang",
        "zip": "4122"
    },
    {
        "city": "Cavite",
        "location": "Kawit",
        "zip": "4104"
    },
    {
        "city": "Cavite",
        "location": "Magallanes",
        "zip": "4113"
    },
    {
        "city": "Cavite",
        "location": "Maragondon",
        "zip": "4112"
    },
    {
        "city": "Cavite",
        "location": "Mendez",
        "zip": "4121"
    },
    {
        "city": "Cavite",
        "location": "Naic",
        "zip": "4110"
    },
    {
        "city": "Cavite",
        "location": "Noveleta",
        "zip": "4105"
    },
    {
        "city": "Cavite",
        "location": "Rosario",
        "zip": "4106"
    },
    {
        "city": "Cavite",
        "location": "Silang",
        "zip": "4118"
    },
    {
        "city": "Cavite",
        "location": "Tagaytay City",
        "zip": "4120"
    },
    {
        "city": "Cavite",
        "location": "Tanza",
        "zip": "4108"
    },
    {
        "city": "Cavite",
        "location": "Ternate",
        "zip": "4111"
    },
    {
        "city": "Cavite",
        "location": "Trece Martirez City",
        "zip": "4109"
    },
    {
        "city": "Ifugao",
        "location": "Aguinaldo",
        "zip": "3606"
    },
    {
        "city": "Ifugao",
        "location": "Asipulo",
        "zip": "3610"
    },
    {
        "city": "Ifugao",
        "location": "Banaue",
        "zip": "3601"
    },
    {
        "city": "Ifugao",
        "location": "Hingyon",
        "zip": "3607"
    },
    {
        "city": "Ifugao",
        "location": "Hungduan",
        "zip": "3603"
    },
    {
        "city": "Ifugao",
        "location": "Kiangan",
        "zip": "3604"
    },
    {
        "city": "Ifugao",
        "location": "Lagawe",
        "zip": "3600"
    },
    {
        "city": "Ifugao",
        "location": "Lamut",
        "zip": "3605"
    },
    {
        "city": "Ifugao",
        "location": "Mayaoyao",
        "zip": "3602"
    },
    {
        "city": "Ifugao",
        "location": "Potia",
        "zip": "3608"
    },
    {
        "city": "Ifugao",
        "location": "Tinoc",
        "zip": "3609"
    },
    {
        "city": "Ilocos Norte",
        "location": "Adams",
        "zip": "2922"
    },
    {
        "city": "Ilocos Norte",
        "location": "Bacarra",
        "zip": "2916"
    },
    {
        "city": "Ilocos Norte",
        "location": "Badoc",
        "zip": "2904"
    },
    {
        "city": "Ilocos Norte",
        "location": "Bangui",
        "zip": "2920"
    },
    {
        "city": "Ilocos Norte",
        "location": "Batac",
        "zip": "2906"
    },
    {
        "city": "Ilocos Norte",
        "location": "Burgos",
        "zip": "2918"
    },
    {
        "city": "Ilocos Norte",
        "location": "Carasi",
        "zip": "2911"
    },
    {
        "city": "Ilocos Norte",
        "location": "Currimao",
        "zip": "2903"
    },
    {
        "city": "Ilocos Norte",
        "location": "Dingras",
        "zip": "2913"
    },
    {
        "city": "Ilocos Norte",
        "location": "Dumalneg",
        "zip": "2921"
    },
    {
        "city": "Ilocos Norte",
        "location": "Espiritu",
        "zip": "2908"
    },
    {
        "city": "Ilocos Norte",
        "location": "Laoag City",
        "zip": "2900"
    },
    {
        "city": "Ilocos Norte",
        "location": "Marcos",
        "zip": "2907"
    },
    {
        "city": "Ilocos Norte",
        "location": "Nueva Era",
        "zip": "2909"
    },
    {
        "city": "Ilocos Norte",
        "location": "Pagudpud",
        "zip": "2919"
    },
    {
        "city": "Ilocos Norte",
        "location": "Paoay",
        "zip": "2902"
    },
    {
        "city": "Ilocos Norte",
        "location": "Pasuquin",
        "zip": "2917"
    },
    {
        "city": "Ilocos Norte",
        "location": "Piddig",
        "zip": "2912"
    },
    {
        "city": "Ilocos Norte",
        "location": "Pinili",
        "zip": "2905"
    },
    {
        "city": "Ilocos Norte",
        "location": "San Nicolas",
        "zip": "2901"
    },
    {
        "city": "Ilocos Norte",
        "location": "Sarrat",
        "zip": "2914"
    },
    {
        "city": "Ilocos Norte",
        "location": "Solsona",
        "zip": "2910"
    },
    {
        "city": "Ilocos Norte",
        "location": "Vintar",
        "zip": "2915"
    },
    {
        "city": "Ilocos Sur",
        "location": "Alilem",
        "zip": "2716"
    },
    {
        "city": "Ilocos Sur",
        "location": "Binayoyo",
        "zip": "2708"
    },
    {
        "city": "Ilocos Sur",
        "location": "Bantay",
        "zip": "2727"
    },
    {
        "city": "Ilocos Sur",
        "location": "Burgos",
        "zip": "2724"
    },
    {
        "city": "Ilocos Sur",
        "location": "Cabugao",
        "zip": "2732"
    },
    {
        "city": "Ilocos Sur",
        "location": "Candon",
        "zip": "2710"
    },
    {
        "city": "Ilocos Sur",
        "location": "Caoayan",
        "zip": "2702"
    },
    {
        "city": "Ilocos Sur",
        "location": "Cervantes",
        "zip": "2718"
    },
    {
        "city": "Ilocos Sur",
        "location": "Galimuyod",
        "zip": "2709"
    },
    {
        "city": "Ilocos Sur",
        "location": "Gregorio del Pilar",
        "zip": "2720"
    },
    {
        "city": "Ilocos Sur",
        "location": "Lidilda",
        "zip": "2723"
    },
    {
        "city": "Ilocos Sur",
        "location": "Magsingal",
        "zip": "2730"
    },
    {
        "city": "Ilocos Sur",
        "location": "Nagbukel",
        "zip": "2725"
    },
    {
        "city": "Ilocos Sur",
        "location": "Narvacan",
        "zip": "2704"
    },
    {
        "city": "Ilocos Sur",
        "location": "Quirino",
        "zip": "2721"
    },
    {
        "city": "Ilocos Sur",
        "location": "Salsedo",
        "zip": "2711"
    },
    {
        "city": "Ilocos Sur",
        "location": "San Emilio",
        "zip": "2722"
    },
    {
        "city": "Ilocos Sur",
        "location": "San Esteban",
        "zip": "2706"
    },
    {
        "city": "Ilocos Sur",
        "location": "San Ildefonso",
        "zip": "2728"
    },
    {
        "city": "Ilocos Sur",
        "location": "San Juan",
        "zip": "2731"
    },
    {
        "city": "Ilocos Sur",
        "location": "San Vicente",
        "zip": "2726"
    },
    {
        "city": "Ilocos Sur",
        "location": "Santa",
        "zip": "2703"
    },
    {
        "city": "Ilocos Sur",
        "location": "Santa Catalina",
        "zip": "2701"
    },
    {
        "city": "Ilocos Sur",
        "location": "Santa Cruz",
        "zip": "2713"
    },
    {
        "city": "Ilocos Sur",
        "location": "Santa Lucia",
        "zip": "2712"
    },
    {
        "city": "Ilocos Sur",
        "location": "Santa Maria",
        "zip": "2705"
    },
    {
        "city": "Ilocos Sur",
        "location": "Santiago",
        "zip": "2707"
    },
    {
        "city": "Ilocos Sur",
        "location": "Santo Domingo",
        "zip": "2729"
    },
    {
        "city": "Ilocos Sur",
        "location": "Sicay",
        "zip": "2719"
    },
    {
        "city": "Ilocos Sur",
        "location": "Sinait",
        "zip": "2733"
    },
    {
        "city": "Ilocos Sur",
        "location": "Sugpon",
        "zip": "2717"
    },
    {
        "city": "Ilocos Sur",
        "location": "Suyo",
        "zip": "2715"
    },
    {
        "city": "Ilocos Sur",
        "location": "Tagudin",
        "zip": "2714"
    },
    {
        "city": "Ilocos Sur",
        "location": "Vigan",
        "zip": "2700"
    },
    {
        "city": "Isabela",
        "location": "Alicia",
        "zip": "3306"
    },
    {
        "city": "Isabela",
        "location": "Angadanan",
        "zip": "3307"
    },
    {
        "city": "Isabela",
        "location": "Aurora",
        "zip": "3316"
    },
    {
        "city": "Isabela",
        "location": "Benito Soliven",
        "zip": "3331"
    },
    {
        "city": "Isabela",
        "location": "Burgos",
        "zip": "3322"
    },
    {
        "city": "Isabela",
        "location": "Cabagan",
        "zip": "3328"
    },
    {
        "city": "Isabela",
        "location": "Cabatuan",
        "zip": "3315"
    },
    {
        "city": "Isabela",
        "location": "Cauayan",
        "zip": "3305"
    },
    {
        "city": "Isabela",
        "location": "Cordon",
        "zip": "3312"
    },
    {
        "city": "Isabela",
        "location": "Delfin Albano",
        "zip": "3326"
    },
    {
        "city": "Isabela",
        "location": "Dinapigui",
        "zip": "3336"
    },
    {
        "city": "Isabela",
        "location": "Divilacan",
        "zip": "3335"
    },
    {
        "city": "Isabela",
        "location": "Echague",
        "zip": "3309"
    },
    {
        "city": "Isabela",
        "location": "Gamu",
        "zip": "3301"
    },
    {
        "city": "Isabela",
        "location": "Ilagan",
        "zip": "3300"
    },
    {
        "city": "Isabela",
        "location": "Jones",
        "zip": "3313"
    },
    {
        "city": "Isabela",
        "location": "Luna",
        "zip": "3304"
    },
    {
        "city": "Isabela",
        "location": "Maconacon",
        "zip": "3333"
    },
    {
        "city": "Isabela",
        "location": "Mallig",
        "zip": "3323"
    },
    {
        "city": "Isabela",
        "location": "Naguillan",
        "zip": "3302"
    },
    {
        "city": "Isabela",
        "location": "Palanan",
        "zip": "3334"
    },
    {
        "city": "Isabela",
        "location": "Quezon",
        "zip": "3324"
    },
    {
        "city": "Isabela",
        "location": "Quirino",
        "zip": "3321"
    },
    {
        "city": "Isabela",
        "location": "Ramon",
        "zip": "3319"
    },
    {
        "city": "Isabela",
        "location": "Reina Mercedes",
        "zip": "3303"
    },
    {
        "city": "Isabela",
        "location": "Roxas",
        "zip": "3320"
    },
    {
        "city": "Isabela",
        "location": "San Agustin",
        "zip": "3314"
    },
    {
        "city": "Isabela",
        "location": "San Guillermo",
        "zip": "3308"
    },
    {
        "city": "Isabela",
        "location": "San Isidro",
        "zip": "3310"
    },
    {
        "city": "Isabela",
        "location": "San Miguel (Callang)",
        "zip": "3317"
    },
    {
        "city": "Isabela",
        "location": "San Mariano",
        "zip": "3332"
    },
    {
        "city": "Isabela",
        "location": "San Mateo",
        "zip": "3318"
    },
    {
        "city": "Isabela",
        "location": "San Pablo",
        "zip": "3329"
    },
    {
        "city": "Isabela",
        "location": "Santa Maria",
        "zip": "3330"
    },
    {
        "city": "Isabela",
        "location": "Santiago",
        "zip": "3311"
    },
    {
        "city": "Isabela",
        "location": "Santo Tomas",
        "zip": "3327"
    },
    {
        "city": "Isabela",
        "location": "Tumauini",
        "zip": "3325"
    },
    {
        "city": "Kalinga-Apayao",
        "location": "Balbalan",
        "zip": "3801"
    },
    {
        "city": "Kalinga-Apayao",
        "location": "Calanasan",
        "zip": "3814"
    },
    {
        "city": "Kalinga-Apayao",
        "location": "Conner",
        "zip": "3807"
    },
    {
        "city": "Kalinga-Apayao",
        "location": "Flora",
        "zip": "3807"
    },
    {
        "city": "Kalinga-Apayao",
        "location": "Kabugao",
        "zip": "3809"
    },
    {
        "city": "Kalinga-Apayao",
        "location": "Liwan (Rizal)",
        "zip": "3808"
    },
    {
        "city": "Kalinga-Apayao",
        "location": "Lubuagan",
        "zip": "3802"
    },
    {
        "city": "Kalinga-Apayao",
        "location": "Luna",
        "zip": "3813"
    },
    {
        "city": "Kalinga-Apayao",
        "location": "Pasil",
        "zip": "3803"
    },
    {
        "city": "Kalinga-Apayao",
        "location": "Pinukpuk",
        "zip": "3806"
    },
    {
        "city": "Kalinga-Apayao",
        "location": "Pudtol",
        "zip": "3812"
    },
    {
        "city": "Kalinga-Apayao",
        "location": "Santa Marcela",
        "zip": "3811"
    },
    {
        "city": "Kalinga-Apayao",
        "location": "Tabuk",
        "zip": "3800"
    },
    {
        "city": "Kalinga-Apayao",
        "location": "Tanudan",
        "zip": "3805"
    },
    {
        "city": "Kalinga-Apayao",
        "location": "Tinglayan",
        "zip": "3804"
    },
    {
        "city": "Laguna",
        "location": "Alaminos",
        "zip": "4001"
    },
    {
        "city": "Laguna",
        "location": "Bay",
        "zip": "4033"
    },
    {
        "city": "Laguna",
        "location": "Binan",
        "zip": "4024"
    },
    {
        "city": "Laguna",
        "location": "Botocan",
        "zip": "4006"
    },
    {
        "city": "Laguna",
        "location": "Cabuyao",
        "zip": "4025"
    },
    {
        "city": "Laguna",
        "location": "Calamba",
        "zip": "4027"
    },
    {
        "city": "Laguna",
        "location": "Calauan",
        "zip": "4012"
    },
    {
        "city": "Laguna",
        "location": "Camp Vicente Lim",
        "zip": "4029"
    },
    {
        "city": "Laguna",
        "location": "Canlubang",
        "zip": "4028"
    },
    {
        "city": "Laguna",
        "location": "Cavinti",
        "zip": "4013"
    },
    {
        "city": "Laguna",
        "location": "College Los Banos",
        "zip": "4031"
    },
    {
        "city": "Laguna",
        "location": "Famy",
        "zip": "4021"
    },
    {
        "city": "Laguna",
        "location": "Kalayaan",
        "zip": "4015"
    },
    {
        "city": "Laguna",
        "location": "Liliw",
        "zip": "4004"
    },
    {
        "city": "Laguna",
        "location": "Los Banos",
        "zip": "4030"
    },
    {
        "city": "Laguna",
        "location": "Luisiana",
        "zip": "4032"
    },
    {
        "city": "Laguna",
        "location": "Lumban",
        "zip": "4014"
    },
    {
        "city": "Laguna",
        "location": "Mabitac",
        "zip": "4020"
    },
    {
        "city": "Laguna",
        "location": "Magdalena",
        "zip": "4007"
    },
    {
        "city": "Laguna",
        "location": "Majayjay",
        "zip": "4005"
    },
    {
        "city": "Laguna",
        "location": "Nagcarlan",
        "zip": "4002"
    },
    {
        "city": "Laguna",
        "location": "Paete",
        "zip": "4016"
    },
    {
        "city": "Laguna",
        "location": "Pagsanjan",
        "zip": "4008"
    },
    {
        "city": "Laguna",
        "location": "Pakil",
        "zip": "4017"
    },
    {
        "city": "Laguna",
        "location": "Pangil",
        "zip": "4018"
    },
    {
        "city": "Laguna",
        "location": "Pila",
        "zip": "4010"
    },
    {
        "city": "Laguna",
        "location": "Rizal",
        "zip": "4003"
    },
    {
        "city": "Laguna",
        "location": "San Pablo City",
        "zip": "4000"
    },
    {
        "city": "Laguna",
        "location": "San Pedro",
        "zip": "4023"
    },
    {
        "city": "Laguna",
        "location": "Santa Cruz",
        "zip": "4009"
    },
    {
        "city": "Laguna",
        "location": "Santa Maria",
        "zip": "4022"
    },
    {
        "city": "Laguna",
        "location": "Santa Rosa",
        "zip": "4026"
    },
    {
        "city": "Laguna",
        "location": "Siniloan",
        "zip": "4019"
    },
    {
        "city": "Laguna",
        "location": "Victoria",
        "zip": "4011"
    },
    {
        "city": "La Union",
        "location": "Agoo",
        "zip": "2504"
    },
    {
        "city": "La Union",
        "location": "Aringay",
        "zip": "2503"
    },
    {
        "city": "La Union",
        "location": "Bacnotan",
        "zip": "2515"
    },
    {
        "city": "La Union",
        "location": "Bagulin",
        "zip": "2512"
    },
    {
        "city": "La Union",
        "location": "Balaoan",
        "zip": "2517"
    },
    {
        "city": "La Union",
        "location": "Bangar",
        "zip": "2519"
    },
    {
        "city": "La Union",
        "location": "Bauang",
        "zip": "2501"
    },
    {
        "city": "La Union",
        "location": "Burgos",
        "zip": "2510"
    },
    {
        "city": "La Union",
        "location": "Caba",
        "zip": "2502"
    },
    {
        "city": "La Union",
        "location": "Damortis",
        "zip": "2507"
    },
    {
        "city": "La Union",
        "location": "Luna",
        "zip": "2518"
    },
    {
        "city": "La Union",
        "location": "Naguillan",
        "zip": "2511"
    },
    {
        "city": "La Union",
        "location": "Pugo",
        "zip": "2508"
    },
    {
        "city": "La Union",
        "location": "Rosario",
        "zip": "2506"
    },
    {
        "city": "La Union",
        "location": "San Fernando",
        "zip": "2500"
    },
    {
        "city": "La Union",
        "location": "San Gabriel",
        "zip": "2513"
    },
    {
        "city": "La Union",
        "location": "San Juan",
        "zip": "2514"
    },
    {
        "city": "La Union",
        "location": "Santol",
        "zip": "2516"
    },
    {
        "city": "La Union",
        "location": "Santo Tomas",
        "zip": "2505"
    },
    {
        "city": "La Union",
        "location": "Sudepen",
        "zip": "2520"
    },
    {
        "city": "La Union",
        "location": "Tubao",
        "zip": "2509"
    },
    {
        "city": "Marinduque",
        "location": "Boac",
        "zip": "4900"
    },
    {
        "city": "Marinduque",
        "location": "Buenavista",
        "zip": "4904"
    },
    {
        "city": "Marinduque",
        "location": "Gasan",
        "zip": "4905"
    },
    {
        "city": "Marinduque",
        "location": "Mogpog",
        "zip": "4901"
    },
    {
        "city": "Marinduque",
        "location": "Santa Cruz",
        "zip": "4902"
    },
    {
        "city": "Marinduque",
        "location": "Torrijos",
        "zip": "4903"
    },
    {
        "city": "Mindoro Occidental",
        "location": "Abra de Ilog",
        "zip": "5108"
    },
    {
        "city": "Mindoro Occidental",
        "location": "Calintaan",
        "zip": "5102"
    },
    {
        "city": "Mindoro Occidental",
        "location": "Looc",
        "zip": "5111"
    },
    {
        "city": "Mindoro Occidental",
        "location": "Lubang",
        "zip": "5109"
    },
    {
        "city": "Mindoro Occidental",
        "location": "Magsaysay",
        "zip": "5101"
    },
    {
        "city": "Mindoro Occidental",
        "location": "Mamburao",
        "zip": "5106"
    },
    {
        "city": "Mindoro Occidental",
        "location": "Paluan",
        "zip": "5107"
    },
    {
        "city": "Mindoro Occidental",
        "location": "Rizal",
        "zip": "5103"
    },
    {
        "city": "Mindoro Occidental",
        "location": "Sablayan",
        "zip": "5104"
    },
    {
        "city": "Mindoro Occidental",
        "location": "San Jose",
        "zip": "5100"
    },
    {
        "city": "Mindoro Occidental",
        "location": "Santa Cruz",
        "zip": "5105"
    },
    {
        "city": "Mindoro Occidental",
        "location": "Tilik",
        "zip": "5110"
    },
    {
        "city": "Mindoro Oriental",
        "location": "Baco",
        "zip": "5201"
    },
    {
        "city": "Mindoro Oriental",
        "location": "Bansud",
        "zip": "5210"
    },
    {
        "city": "Mindoro Oriental",
        "location": "Bongabon",
        "zip": "5211"
    },
    {
        "city": "Mindoro Oriental",
        "location": "Bulalacao",
        "zip": "5214"
    },
    {
        "city": "Mindoro Oriental",
        "location": "Calapan",
        "zip": "5200"
    },
    {
        "city": "Mindoro Oriental",
        "location": "Gloria",
        "zip": "5209"
    },
    {
        "city": "Mindoro Oriental",
        "location": "Mansalay",
        "zip": "5208"
    },
    {
        "city": "Mindoro Oriental",
        "location": "Pola",
        "zip": "5206"
    },
    {
        "city": "Mindoro Oriental",
        "location": "Puerto Galera",
        "zip": "5203"
    },
    {
        "city": "Mindoro Oriental",
        "location": "Roxas",
        "zip": "5212"
    },
    {
        "city": "Mindoro Oriental",
        "location": "San Teodoro",
        "zip": "5202"
    },
    {
        "city": "Mindoro Oriental",
        "location": "Socorro",
        "zip": "5207"
    },
    {
        "city": "Mindoro Oriental",
        "location": "Victoria",
        "zip": "5205"
    },
    {
        "city": "Mountain Province",
        "location": "Barlig",
        "zip": "2623"
    },
    {
        "city": "Mountain Province",
        "location": "Bauko",
        "zip": "2621"
    },
    {
        "city": "Mountain Province",
        "location": "Besao",
        "zip": "2618"
    },
    {
        "city": "Mountain Province",
        "location": "Bontoc",
        "zip": "2616"
    },
    {
        "city": "Mountain Province",
        "location": "Natonin",
        "zip": "2624"
    },
    {
        "city": "Mountain Province",
        "location": "Paracelis",
        "zip": "2625"
    },
    {
        "city": "Mountain Province",
        "location": "Sabangan",
        "zip": "2622"
    },
    {
        "city": "Mountain Province",
        "location": "Sadanga",
        "zip": "2617"
    },
    {
        "city": "Mountain Province",
        "location": "Sagada",
        "zip": "2619"
    },
    {
        "city": "Mountain Province",
        "location": "Tadian",
        "zip": "2620"
    },
    {
        "city": "Nueva Ecija",
        "location": "Aliaga",
        "zip": "3111"
    },
    {
        "city": "Nueva Ecija",
        "location": "Bongabon",
        "zip": "3128"
    },
    {
        "city": "Nueva Ecija",
        "location": "Cabanatuan City",
        "zip": "3100"
    },
    {
        "city": "Nueva Ecija",
        "location": "Cabiao",
        "zip": "3107"
    },
    {
        "city": "Nueva Ecija",
        "location": "Carranglan",
        "zip": "3123"
    },
    {
        "city": "Nueva Ecija",
        "location": "Central Luzon State University",
        "zip": "3120"
    },
    {
        "city": "Nueva Ecija",
        "location": "Cuyapao",
        "zip": "3117"
    },
    {
        "city": "Nueva Ecija",
        "location": "Fort Magsaysay",
        "zip": "3130"
    },
    {
        "city": "Nueva Ecija",
        "location": "Gabaldon",
        "zip": "3131"
    },
    {
        "city": "Nueva Ecija",
        "location": "Gapan",
        "zip": "3105"
    },
    {
        "city": "Nueva Ecija",
        "location": "Gen. M. Natividad",
        "zip": "3125"
    },
    {
        "city": "Nueva Ecija",
        "location": "Gen. Tinio",
        "zip": "3104"
    },
    {
        "city": "Nueva Ecija",
        "location": "Guimba",
        "zip": "3115"
    },
    {
        "city": "Nueva Ecija",
        "location": "Jaen",
        "zip": "3109"
    },
    {
        "city": "Nueva Ecija",
        "location": "Laur",
        "zip": "3129"
    },
    {
        "city": "Nueva Ecija",
        "location": "Lucab",
        "zip": "3112"
    },
    {
        "city": "Nueva Ecija",
        "location": "Llanera",
        "zip": "3126"
    },
    {
        "city": "Nueva Ecija",
        "location": "Lupao",
        "zip": "3122"
    },
    {
        "city": "Nueva Ecija",
        "location": "Munoz",
        "zip": "3119"
    },
    {
        "city": "Nueva Ecija",
        "location": "Nampicuan",
        "zip": "3116"
    },
    {
        "city": "Nueva Ecija",
        "location": "Palayan City",
        "zip": "3132"
    },
    {
        "city": "Nueva Ecija",
        "location": "Pantabangan",
        "zip": "3124"
    },
    {
        "city": "Nueva Ecija",
        "location": "Penaranda",
        "zip": "3103"
    },
    {
        "city": "Nueva Ecija",
        "location": "Quezon",
        "zip": "3113"
    },
    {
        "city": "Nueva Ecija",
        "location": "Rizal",
        "zip": "3127"
    },
    {
        "city": "Nueva Ecija",
        "location": "San Antonio",
        "zip": "3108"
    },
    {
        "city": "Nueva Ecija",
        "location": "San Isidro",
        "zip": "3106"
    },
    {
        "city": "Nueva Ecija",
        "location": "San Jose City",
        "zip": "3121"
    },
    {
        "city": "Nueva Ecija",
        "location": "San Leonardo",
        "zip": "3102"
    },
    {
        "city": "Nueva Ecija",
        "location": "Santa Rosa",
        "zip": "3101"
    },
    {
        "city": "Nueva Ecija",
        "location": "Santo Domingo",
        "zip": "3133"
    },
    {
        "city": "Nueva Ecija",
        "location": "Talavera",
        "zip": "3114"
    },
    {
        "city": "Nueva Ecija",
        "location": "Talugtog",
        "zip": "3118"
    },
    {
        "city": "Nueva Ecija",
        "location": "Zaragosa",
        "zip": "3110"
    },
    {
        "city": "Nueva Vizcaya",
        "location": "Alfonso Castañeda",
        "zip": "3714"
    },
    {
        "city": "Nueva Vizcaya",
        "location": "Ambaguio",
        "zip": "3701"
    },
    {
        "city": "Nueva Vizcaya",
        "location": "Aritao",
        "zip": "3704"
    },
    {
        "city": "Nueva Vizcaya",
        "location": "Bagabag",
        "zip": "3711"
    },
    {
        "city": "Nueva Vizcaya",
        "location": "Bambang",
        "zip": "3702"
    },
    {
        "city": "Nueva Vizcaya",
        "location": "Bayombong",
        "zip": "3700"
    },
    {
        "city": "Nueva Vizcaya",
        "location": "Diadi",
        "zip": "3712"
    },
    {
        "city": "Nueva Vizcaya",
        "location": "Dupax del Norte",
        "zip": "3706"
    },
    {
        "city": "Nueva Vizcaya",
        "location": "Dupax del Sur",
        "zip": "3707"
    },
    {
        "city": "Nueva Vizcaya",
        "location": "Kasibu",
        "zip": "3703"
    },
    {
        "city": "Nueva Vizcaya",
        "location": "Kayapa",
        "zip": "3708"
    },
    {
        "city": "Nueva Vizcaya",
        "location": "Quezon",
        "zip": "3713"
    },
    {
        "city": "Nueva Vizcaya",
        "location": "Solano",
        "zip": "3709"
    },
    {
        "city": "Nueva Vizcaya",
        "location": "Sta. Fe (Imugan)",
        "zip": "3705"
    },
    {
        "city": "Nueva Vizcaya",
        "location": "Villa Verde (Ibung)",
        "zip": "3710"
    },
    {
        "city": "Palawan",
        "location": "Aborlan",
        "zip": "5302"
    },
    {
        "city": "Palawan",
        "location": "Agutaya",
        "zip": "5320"
    },
    {
        "city": "Palawan",
        "location": "Araceli",
        "zip": "5311"
    },
    {
        "city": "Palawan",
        "location": "Balabac",
        "zip": "5307"
    },
    {
        "city": "Palawan",
        "location": "Bataraza",
        "zip": "5306"
    },
    {
        "city": "Palawan",
        "location": "Brooke's Point",
        "zip": "5305"
    },
    {
        "city": "Palawan",
        "location": "Busuanga",
        "zip": "5317"
    },
    {
        "city": "Palawan",
        "location": "Cagayancillo",
        "zip": "5321"
    },
    {
        "city": "Palawan",
        "location": "Coron",
        "zip": "5316"
    },
    {
        "city": "Palawan",
        "location": "Culion",
        "zip": "5315"
    },
    {
        "city": "Palawan",
        "location": "Cuyo",
        "zip": "5318"
    },
    {
        "city": "Palawan",
        "location": "Dumaran",
        "zip": "5310"
    },
    {
        "city": "Palawan",
        "location": "El Nido (Baquit)",
        "zip": "5313"
    },
    {
        "city": "Palawan",
        "location": "Iwahig Penal Colony",
        "zip": "5301"
    },
    {
        "city": "Palawan",
        "location": "Kalayaan",
        "zip": "5322"
    },
    {
        "city": "Palawan",
        "location": "Linapacan",
        "zip": "5314"
    },
    {
        "city": "Palawan",
        "location": "Magsaysay",
        "zip": "5319"
    },
    {
        "city": "Palawan",
        "location": "Narra (Panacan)",
        "zip": "5303"
    },
    {
        "city": "Palawan",
        "location": "Puerto Princesa City",
        "zip": "5300"
    },
    {
        "city": "Palawan",
        "location": "Quezon",
        "zip": "5304"
    },
    {
        "city": "Palawan",
        "location": "Roxas",
        "zip": "5308"
    },
    {
        "city": "Palawan",
        "location": "San Vicente",
        "zip": "5309"
    },
    {
        "city": "Palawan",
        "location": "Taytay",
        "zip": "5312"
    },
    {
        "city": "Pampanga",
        "location": "Angeles City",
        "zip": "2009"
    },
    {
        "city": "Pampanga",
        "location": "Apalit",
        "zip": "2016"
    },
    {
        "city": "Pampanga",
        "location": "Arayat",
        "zip": "2012"
    },
    {
        "city": "Pampanga",
        "location": "Bacolor",
        "zip": "2001"
    },
    {
        "city": "Pampanga",
        "location": "Basa Air Base",
        "zip": "2007"
    },
    {
        "city": "Pampanga",
        "location": "Candaba",
        "zip": "2013"
    },
    {
        "city": "Pampanga",
        "location": "Floridablanca",
        "zip": "2006"
    },
    {
        "city": "Pampanga",
        "location": "Guagua",
        "zip": "2003"
    },
    {
        "city": "Pampanga",
        "location": "Lubao",
        "zip": "2005"
    },
    {
        "city": "Pampanga",
        "location": "Mabalacat",
        "zip": "2010"
    },
    {
        "city": "Pampanga",
        "location": "Macabebe",
        "zip": "2018"
    },
    {
        "city": "Pampanga",
        "location": "Magalang",
        "zip": "2011"
    },
    {
        "city": "Pampanga",
        "location": "Masantol",
        "zip": "2017"
    },
    {
        "city": "Pampanga",
        "location": "Mexico",
        "zip": "2021"
    },
    {
        "city": "Pampanga",
        "location": "Minalin",
        "zip": "2019"
    },
    {
        "city": "Pampanga",
        "location": "Porac",
        "zip": "2008"
    },
    {
        "city": "Pampanga",
        "location": "San Fernando",
        "zip": "2000"
    },
    {
        "city": "Pampanga",
        "location": "San Luis",
        "zip": "2014"
    },
    {
        "city": "Pampanga",
        "location": "San Simon",
        "zip": "2015"
    },
    {
        "city": "Pampanga",
        "location": "Santa Ana",
        "zip": "2022"
    },
    {
        "city": "Pampanga",
        "location": "Santa Rita",
        "zip": "2002"
    },
    {
        "city": "Pampanga",
        "location": "Santo Tomas",
        "zip": "2020"
    },
    {
        "city": "Pampanga",
        "location": "Sasmuan",
        "zip": "2004"
    },
    {
        "city": "Pangasinan",
        "location": "Agno",
        "zip": "2408"
    },
    {
        "city": "Pangasinan",
        "location": "Aguilar",
        "zip": "2415"
    },
    {
        "city": "Pangasinan",
        "location": "Alaminos",
        "zip": "2404"
    },
    {
        "city": "Pangasinan",
        "location": "Alcala",
        "zip": "2425"
    },
    {
        "city": "Pangasinan",
        "location": "Anda",
        "zip": "2405"
    },
    {
        "city": "Pangasinan",
        "location": "Asingan",
        "zip": "2439"
    },
    {
        "city": "Pangasinan",
        "location": "Balungao",
        "zip": "2442"
    },
    {
        "city": "Pangasinan",
        "location": "Bani",
        "zip": "2407"
    },
    {
        "city": "Pangasinan",
        "location": "Basista",
        "zip": "2422"
    },
    {
        "city": "Pangasinan",
        "location": "Bautista",
        "zip": "2424"
    },
    {
        "city": "Pangasinan",
        "location": "Bayambang",
        "zip": "2423"
    },
    {
        "city": "Pangasinan",
        "location": "Binalonan",
        "zip": "2436"
    },
    {
        "city": "Pangasinan",
        "location": "Binmaley",
        "zip": "2417"
    },
    {
        "city": "Pangasinan",
        "location": "Bolinao",
        "zip": "2406"
    },
    {
        "city": "Pangasinan",
        "location": "Bugallon",
        "zip": "2416"
    },
    {
        "city": "Pangasinan",
        "location": "Burgos",
        "zip": "2410"
    },
    {
        "city": "Pangasinan",
        "location": "Calasiao",
        "zip": "2418"
    },
    {
        "city": "Pangasinan",
        "location": "Dagupan City",
        "zip": "2400"
    },
    {
        "city": "Pangasinan",
        "location": "Dasol",
        "zip": "2411"
    },
    {
        "city": "Pangasinan",
        "location": "Infanta",
        "zip": "2412"
    },
    {
        "city": "Pangasinan",
        "location": "Labrador",
        "zip": "2402"
    },
    {
        "city": "Pangasinan",
        "location": "Laoac",
        "zip": "2437"
    },
    {
        "city": "Pangasinan",
        "location": "Lingayen",
        "zip": "2401"
    },
    {
        "city": "Pangasinan",
        "location": "Mabini",
        "zip": "2409"
    },
    {
        "city": "Pangasinan",
        "location": "Malasiqui",
        "zip": "2421"
    },
    {
        "city": "Pangasinan",
        "location": "Manaoag",
        "zip": "2430"
    },
    {
        "city": "Pangasinan",
        "location": "Mangaldan",
        "zip": "2432"
    },
    {
        "city": "Pangasinan",
        "location": "Mangatarem",
        "zip": "2413"
    },
    {
        "city": "Pangasinan",
        "location": "Mapandan",
        "zip": "2429"
    },
    {
        "city": "Pangasinan",
        "location": "Natividad",
        "zip": "2446"
    },
    {
        "city": "Pangasinan",
        "location": "Pozorrubio",
        "zip": "2435"
    },
    {
        "city": "Pangasinan",
        "location": "Rosales",
        "zip": "2441"
    },
    {
        "city": "Pangasinan",
        "location": "San Carlos City",
        "zip": "2420"
    },
    {
        "city": "Pangasinan",
        "location": "San Fabian",
        "zip": "2433"
    },
    {
        "city": "Pangasinan",
        "location": "San Jacinto",
        "zip": "2431"
    },
    {
        "city": "Pangasinan",
        "location": "San Manuel",
        "zip": "2438"
    },
    {
        "city": "Pangasinan",
        "location": "San Nicolas",
        "zip": "2447"
    },
    {
        "city": "Pangasinan",
        "location": "San Quintin",
        "zip": "2444"
    },
    {
        "city": "Pangasinan",
        "location": "Santa Barbara",
        "zip": "2419"
    },
    {
        "city": "Pangasinan",
        "location": "Santa Maria",
        "zip": "2440"
    },
    {
        "city": "Pangasinan",
        "location": "Santo Tomas",
        "zip": "2426"
    },
    {
        "city": "Pangasinan",
        "location": "Sison",
        "zip": "2434"
    },
    {
        "city": "Pangasinan",
        "location": "Sual",
        "zip": "2403"
    },
    {
        "city": "Pangasinan",
        "location": "Tayug",
        "zip": "2445"
    },
    {
        "city": "Pangasinan",
        "location": "Umingan",
        "zip": "2443"
    },
    {
        "city": "Pangasinan",
        "location": "Urbiztondo",
        "zip": "2414"
    },
    {
        "city": "Pangasinan",
        "location": "Urdaneta",
        "zip": "2428"
    },
    {
        "city": "Pangasinan",
        "location": "Villasis",
        "zip": "2427"
    },
    {
        "city": "Quezon Province",
        "location": "Agdangan",
        "zip": "4304"
    },
    {
        "city": "Quezon Province",
        "location": "Alabat",
        "zip": "4333"
    },
    {
        "city": "Quezon Province",
        "location": "Atimonan",
        "zip": "4331"
    },
    {
        "city": "Quezon Province",
        "location": "Buenavista",
        "zip": "4320"
    },
    {
        "city": "Quezon Province",
        "location": "Burdeos",
        "zip": "4340"
    },
    {
        "city": "Quezon Province",
        "location": "Calauag",
        "zip": "4318"
    },
    {
        "city": "Quezon Province",
        "location": "Candelaria",
        "zip": "4323"
    },
    {
        "city": "Quezon Province",
        "location": "Catanuan",
        "zip": "4311"
    },
    {
        "city": "Quezon Province",
        "location": "Dolores",
        "zip": "4326"
    },
    {
        "city": "Quezon Province",
        "location": "Gen. Luna",
        "zip": "4310"
    },
    {
        "city": "Quezon Province",
        "location": "Gen. Nakar",
        "zip": "4338"
    },
    {
        "city": "Quezon Province",
        "location": "Guinayangan",
        "zip": "4319"
    },
    {
        "city": "Quezon Province",
        "location": "Gumaca",
        "zip": "4306"
    },
    {
        "city": "Quezon Province",
        "location": "Hondagua",
        "zip": "4317"
    },
    {
        "city": "Quezon Province",
        "location": "Infanta",
        "zip": "4336"
    },
    {
        "city": "Quezon Province",
        "location": "Jomalig",
        "zip": "4342"
    },
    {
        "city": "Quezon Province",
        "location": "Lopez",
        "zip": "4316"
    },
    {
        "city": "Quezon Province",
        "location": "Lucban",
        "zip": "4328"
    },
    {
        "city": "Quezon Province",
        "location": "Lucena City",
        "zip": "4301"
    },
    {
        "city": "Quezon Province",
        "location": "Macalelon",
        "zip": "4309"
    },
    {
        "city": "Quezon Province",
        "location": "Mauban",
        "zip": "4330"
    },
    {
        "city": "Quezon Province",
        "location": "Mulanay",
        "zip": "4312"
    },
    {
        "city": "Quezon Province",
        "location": "Padre Burgos",
        "zip": "4303"
    },
    {
        "city": "Quezon Province",
        "location": "Pagbilao",
        "zip": "4302"
    },
    {
        "city": "Quezon Province",
        "location": "Panukulan",
        "zip": "4337"
    },
    {
        "city": "Quezon Province",
        "location": "Patnonangan",
        "zip": "4341"
    },
    {
        "city": "Quezon Province",
        "location": "Perez",
        "zip": "4334"
    },
    {
        "city": "Quezon Province",
        "location": "Pitogo",
        "zip": "4308"
    },
    {
        "city": "Quezon Province",
        "location": "Plaridel",
        "zip": "4306"
    },
    {
        "city": "Quezon Province",
        "location": "Polilio",
        "zip": "4339"
    },
    {
        "city": "Quezon Province",
        "location": "Quezon",
        "zip": "4332"
    },
    {
        "city": "Quezon Province",
        "location": "Quezon Capitol",
        "zip": "4300"
    },
    {
        "city": "Quezon Province",
        "location": "Real",
        "zip": "4335"
    },
    {
        "city": "Quezon Province",
        "location": "Sampaloc",
        "zip": "4329"
    },
    {
        "city": "Quezon Province",
        "location": "San Andres",
        "zip": "4314"
    },
    {
        "city": "Quezon Province",
        "location": "San Antonio",
        "zip": "4324"
    },
    {
        "city": "Quezon Province",
        "location": "San Francisco",
        "zip": "4315"
    },
    {
        "city": "Quezon Province",
        "location": "San Narciso",
        "zip": "4313"
    },
    {
        "city": "Quezon Province",
        "location": "Sariaya",
        "zip": "4322"
    },
    {
        "city": "Quezon Province",
        "location": "Tagkawayan",
        "zip": "4321"
    },
    {
        "city": "Quezon Province",
        "location": "Tayabas",
        "zip": "4327"
    },
    {
        "city": "Quezon Province",
        "location": "Tiaong",
        "zip": "4325"
    },
    {
        "city": "Quezon Province",
        "location": "Unisan",
        "zip": "4305"
    },
    {
        "city": "Quirino",
        "location": "Aglipay",
        "zip": "3403"
    },
    {
        "city": "Quirino",
        "location": "Cabarruguis",
        "zip": "3400"
    },
    {
        "city": "Quirino",
        "location": "Diffun",
        "zip": "3401"
    },
    {
        "city": "Quirino",
        "location": "Maddela",
        "zip": "3404"
    },
    {
        "city": "Quirino",
        "location": "Nagtipunan",
        "zip": "3405"
    },
    {
        "city": "Quirino",
        "location": "Saguday",
        "zip": "3402"
    },
    {
        "city": "Rizal",
        "location": "Antipolo",
        "zip": "1870"
    },
    {
        "city": "Rizal",
        "location": "Montalban (Rodriguez)",
        "zip": "1860"
    },
    {
        "city": "Rizal",
        "location": "San Mateo",
        "zip": "1850"
    },
    {
        "city": "Rizal",
        "location": "Teresa",
        "zip": "1880"
    },
    {
        "city": "Rizal",
        "location": "Angono",
        "zip": "1930"
    },
    {
        "city": "Rizal",
        "location": "Baras",
        "zip": "1970"
    },
    {
        "city": "Rizal",
        "location": "Binangonan",
        "zip": "1940"
    },
    {
        "city": "Rizal",
        "location": "Cainta",
        "zip": "1900"
    },
    {
        "city": "Rizal",
        "location": "Cardona",
        "zip": "1950"
    },
    {
        "city": "Rizal",
        "location": "Jala-Jala",
        "zip": "1990"
    },
    {
        "city": "Rizal",
        "location": "Morong",
        "zip": "1960"
    },
    {
        "city": "Rizal",
        "location": "Pililia",
        "zip": "1910"
    },
    {
        "city": "Rizal",
        "location": "Tanay",
        "zip": "1980"
    },
    {
        "city": "Rizal",
        "location": "Taytay",
        "zip": "1920"
    },
    {
        "city": "Sorsogon",
        "location": "Bacon",
        "zip": "4701"
    },
    {
        "city": "Sorsogon",
        "location": "Barcelona",
        "zip": "4712"
    },
    {
        "city": "Sorsogon",
        "location": "Bulan",
        "zip": "4706"
    },
    {
        "city": "Sorsogon",
        "location": "Bulusan",
        "zip": "4704"
    },
    {
        "city": "Sorsogon",
        "location": "Casiguran",
        "zip": "4702"
    },
    {
        "city": "Sorsogon",
        "location": "Castilla",
        "zip": "4713"
    },
    {
        "city": "Sorsogon",
        "location": "Donsol",
        "zip": "4715"
    },
    {
        "city": "Sorsogon",
        "location": "Gubat",
        "zip": "4710"
    },
    {
        "city": "Sorsogon",
        "location": "Irosin",
        "zip": "4707"
    },
    {
        "city": "Sorsogon",
        "location": "Juban",
        "zip": "4703"
    },
    {
        "city": "Sorsogon",
        "location": "Magallanes",
        "zip": "4705"
    },
    {
        "city": "Sorsogon",
        "location": "Matnog",
        "zip": "4708"
    },
    {
        "city": "Sorsogon",
        "location": "Pilar",
        "zip": "4714"
    },
    {
        "city": "Sorsogon",
        "location": "Prieto Diaz",
        "zip": "4711"
    },
    {
        "city": "Sorsogon",
        "location": "Sta. Magdalena",
        "zip": "4709"
    },
    {
        "city": "Sorsogon",
        "location": "Sorsogon",
        "zip": "4700"
    },
    {
        "city": "Tarlac",
        "location": "Anao",
        "zip": "2310"
    },
    {
        "city": "Tarlac",
        "location": "Bamban",
        "zip": "2317"
    },
    {
        "city": "Tarlac",
        "location": "Camiling",
        "zip": "2306"
    },
    {
        "city": "Tarlac",
        "location": "Capas",
        "zip": "2315"
    },
    {
        "city": "Tarlac",
        "location": "Conception",
        "zip": "2316"
    },
    {
        "city": "Tarlac",
        "location": "Gerona",
        "zip": "2302"
    },
    {
        "city": "Tarlac",
        "location": "La Paz",
        "zip": "2314"
    },
    {
        "city": "Tarlac",
        "location": "Mayantoc",
        "zip": "2304"
    },
    {
        "city": "Tarlac",
        "location": "Mancada",
        "zip": "2308"
    },
    {
        "city": "Tarlac",
        "location": "Paniqui",
        "zip": "2307"
    },
    {
        "city": "Tarlac",
        "location": "Pura",
        "zip": "2312"
    },
    {
        "city": "Tarlac",
        "location": "Ramos",
        "zip": "2311"
    },
    {
        "city": "Tarlac",
        "location": "San Clemente",
        "zip": "2305"
    },
    {
        "city": "Tarlac",
        "location": "San Manuel",
        "zip": "2309"
    },
    {
        "city": "Tarlac",
        "location": "San Miguel",
        "zip": "2301"
    },
    {
        "city": "Tarlac",
        "location": "Sta. Ignacia",
        "zip": "2303"
    },
    {
        "city": "Tarlac",
        "location": "Tarlac",
        "zip": "2300"
    },
    {
        "city": "Tarlac",
        "location": "Victoria",
        "zip": "2313"
    },
    {
        "city": "Zambales",
        "location": "Botolan",
        "zip": "2202"
    },
    {
        "city": "Zambales",
        "location": "Cabangan",
        "zip": "2203"
    },
    {
        "city": "Zambales",
        "location": "Candelaria",
        "zip": "2212"
    },
    {
        "city": "Zambales",
        "location": "Castillejos",
        "zip": "2208"
    },
    {
        "city": "Zambales",
        "location": "Iba",
        "zip": "2201"
    },
    {
        "city": "Zambales",
        "location": "Masinloc",
        "zip": "2211"
    },
    {
        "city": "Zambales",
        "location": "Olongapo City",
        "zip": "2200"
    },
    {
        "city": "Zambales",
        "location": "Palauig",
        "zip": "2210"
    },
    {
        "city": "Zambales",
        "location": "San Antonio",
        "zip": "2206"
    },
    {
        "city": "Zambales",
        "location": "San Felipe",
        "zip": "2204"
    },
    {
        "city": "Zambales",
        "location": "San Marcelino",
        "zip": "2207"
    },
    {
        "city": "Zambales",
        "location": "San Narciso",
        "zip": "2205"
    },
    {
        "city": "Zambales",
        "location": "Sta. Cruz",
        "zip": "2213"
    },
    {
        "city": "Zambales",
        "location": "Subic",
        "zip": "2209"
    },
    {
        "city": "Aklan",
        "location": "Altavas",
        "zip": "5616"
    },
    {
        "city": "Aklan",
        "location": "Balite",
        "zip": "5614"
    },
    {
        "city": "Aklan",
        "location": "Banga",
        "zip": "5601"
    },
    {
        "city": "Aklan",
        "location": "Batan",
        "zip": "5615"
    },
    {
        "city": "Aklan",
        "location": "Buruanga",
        "zip": "5609"
    },
    {
        "city": "Aklan",
        "location": "Ibajay",
        "zip": "5613"
    },
    {
        "city": "Aklan",
        "location": "Kalibo",
        "zip": "5600"
    },
    {
        "city": "Aklan",
        "location": "Lezo",
        "zip": "5605"
    },
    {
        "city": "Aklan",
        "location": "Libacao",
        "zip": "5602"
    },
    {
        "city": "Aklan",
        "location": "Madalag",
        "zip": "5603"
    },
    {
        "city": "Aklan",
        "location": "Makato",
        "zip": "5611"
    },
    {
        "city": "Aklan",
        "location": "Malay",
        "zip": "5608"
    },
    {
        "city": "Aklan",
        "location": "Malinao",
        "zip": "5606"
    },
    {
        "city": "Aklan",
        "location": "Nabas",
        "zip": "5607"
    },
    {
        "city": "Aklan",
        "location": "New Washington",
        "zip": "5610"
    },
    {
        "city": "Aklan",
        "location": "Numancia",
        "zip": "5604"
    },
    {
        "city": "Aklan",
        "location": "Tangalan",
        "zip": "5612"
    },
    {
        "city": "Antique",
        "location": "Anini-y",
        "zip": "5717"
    },
    {
        "city": "Antique",
        "location": "Barbasa",
        "zip": "5706"
    },
    {
        "city": "Antique",
        "location": "Belison",
        "zip": "5701"
    },
    {
        "city": "Antique",
        "location": "Bugasong",
        "zip": "5704"
    },
    {
        "city": "Antique",
        "location": "Caluya",
        "zip": "5711"
    },
    {
        "city": "Antique",
        "location": "Culasi",
        "zip": "5708"
    },
    {
        "city": "Antique",
        "location": "Hamtic",
        "zip": "5715"
    },
    {
        "city": "Antique",
        "location": "Lawa-an",
        "zip": "5705"
    },
    {
        "city": "Antique",
        "location": "Libertad",
        "zip": "5710"
    },
    {
        "city": "Antique",
        "location": "Pandan",
        "zip": "5712"
    },
    {
        "city": "Antique",
        "location": "Patnongan",
        "zip": "5702"
    },
    {
        "city": "Antique",
        "location": "San Jose",
        "zip": "5700"
    },
    {
        "city": "Antique",
        "location": "San Remedio",
        "zip": "5714"
    },
    {
        "city": "Antique",
        "location": "Sebaste",
        "zip": "5709"
    },
    {
        "city": "Antique",
        "location": "Sibalom",
        "zip": "5713"
    },
    {
        "city": "Antique",
        "location": "Tibiao",
        "zip": "5707"
    },
    {
        "city": "Antique",
        "location": "Tobias Fornier (Dao)",
        "zip": "5716"
    },
    {
        "city": "Antique",
        "location": "Valderama",
        "zip": "5703"
    },
    {
        "city": "Biliran",
        "location": "Almeria",
        "zip": "6544"
    },
    {
        "city": "Biliran",
        "location": "Biliran",
        "zip": "6549"
    },
    {
        "city": "Biliran",
        "location": "Cabuccayan",
        "zip": "6550"
    },
    {
        "city": "Biliran",
        "location": "Caibiran",
        "zip": "6548"
    },
    {
        "city": "Biliran",
        "location": "Culaba",
        "zip": "6547"
    },
    {
        "city": "Biliran",
        "location": "Kawayan",
        "zip": "6545"
    },
    {
        "city": "Biliran",
        "location": "Maripipi",
        "zip": "6546"
    },
    {
        "city": "Biliran",
        "location": "Naval",
        "zip": "6543"
    },
    {
        "city": "Bohol",
        "location": "Albuquerque",
        "zip": "6302"
    },
    {
        "city": "Bohol",
        "location": "Alicia",
        "zip": "6314"
    },
    {
        "city": "Bohol",
        "location": "Anda",
        "zip": "6311"
    },
    {
        "city": "Bohol",
        "location": "Antiquera",
        "zip": "6335"
    },
    {
        "city": "Bohol",
        "location": "Baclayon",
        "zip": "6301"
    },
    {
        "city": "Bohol",
        "location": "Balilihan",
        "zip": "6342"
    },
    {
        "city": "Bohol",
        "location": "Batuan",
        "zip": "6318"
    },
    {
        "city": "Bohol",
        "location": "Bien Unido",
        "zip": "6326"
    },
    {
        "city": "Bohol",
        "location": "Bilar",
        "zip": "6317"
    },
    {
        "city": "Bohol",
        "location": "Buenavista",
        "zip": "6333"
    },
    {
        "city": "Bohol",
        "location": "Calape",
        "zip": "6328"
    },
    {
        "city": "Bohol",
        "location": "Candijay",
        "zip": "6312"
    },
    {
        "city": "Bohol",
        "location": "Carlos P. Garcia (Dao)",
        "zip": "6346"
    },
    {
        "city": "Bohol",
        "location": "Carmen",
        "zip": "6319"
    },
    {
        "city": "Bohol",
        "location": "Catigbi-an",
        "zip": "6343"
    },
    {
        "city": "Bohol",
        "location": "Clarin",
        "zip": "6330"
    },
    {
        "city": "Bohol",
        "location": "Corella",
        "zip": "6337"
    },
    {
        "city": "Bohol",
        "location": "Cortez",
        "zip": "6341"
    },
    {
        "city": "Bohol",
        "location": "Daguhoy",
        "zip": "6322"
    },
    {
        "city": "Bohol",
        "location": "Danao",
        "zip": "6344"
    },
    {
        "city": "Bohol",
        "location": "Dauis",
        "zip": "6339"
    },
    {
        "city": "Bohol",
        "location": "Dimiao",
        "zip": "6305"
    },
    {
        "city": "Bohol",
        "location": "Duero",
        "zip": "6309"
    },
    {
        "city": "Bohol",
        "location": "Garcia Hernandez",
        "zip": "6307"
    },
    {
        "city": "Bohol",
        "location": "Guindulman",
        "zip": "6310"
    },
    {
        "city": "Bohol",
        "location": "Inabanga",
        "zip": "6332"
    },
    {
        "city": "Bohol",
        "location": "Jagna",
        "zip": "6308"
    },
    {
        "city": "Bohol",
        "location": "Jetafe",
        "zip": "6334"
    },
    {
        "city": "Bohol",
        "location": "Lila",
        "zip": "6304"
    },
    {
        "city": "Bohol",
        "location": "Loay",
        "zip": "6303"
    },
    {
        "city": "Bohol",
        "location": "Loboc",
        "zip": "6316"
    },
    {
        "city": "Bohol",
        "location": "Loon",
        "zip": "6327"
    },
    {
        "city": "Bohol",
        "location": "Mabini",
        "zip": "6313"
    },
    {
        "city": "Bohol",
        "location": "Maribujok",
        "zip": "6336"
    },
    {
        "city": "Bohol",
        "location": "Panglao",
        "zip": "6340"
    },
    {
        "city": "Bohol",
        "location": "Pilar",
        "zip": "6321"
    },
    {
        "city": "Bohol",
        "location": "Sagbayan",
        "zip": "6331"
    },
    {
        "city": "Bohol",
        "location": "San Isidro",
        "zip": "6345"
    },
    {
        "city": "Bohol",
        "location": "San Miguel",
        "zip": "6323"
    },
    {
        "city": "Bohol",
        "location": "Sevilla",
        "zip": "6347"
    },
    {
        "city": "Bohol",
        "location": "Sierra Bullones",
        "zip": "6320"
    },
    {
        "city": "Bohol",
        "location": "Sikatuna",
        "zip": "6338"
    },
    {
        "city": "Bohol",
        "location": "Tagbilaran City",
        "zip": "6300"
    },
    {
        "city": "Bohol",
        "location": "Talibon",
        "zip": "6325"
    },
    {
        "city": "Bohol",
        "location": "Trinidad",
        "zip": "6324"
    },
    {
        "city": "Bohol",
        "location": "Tubigon",
        "zip": "6329"
    },
    {
        "city": "Bohol",
        "location": "Ubay",
        "zip": "6315"
    },
    {
        "city": "Bohol",
        "location": "Valencia",
        "zip": "6306"
    },
    {
        "city": "Capiz",
        "location": "Cuartero",
        "zip": "5811"
    },
    {
        "city": "Capiz",
        "location": "Dao",
        "zip": "5810"
    },
    {
        "city": "Capiz",
        "location": "Dumalag",
        "zip": "5813"
    },
    {
        "city": "Capiz",
        "location": "Dumarao",
        "zip": "5812"
    },
    {
        "city": "Capiz",
        "location": "Ivisan",
        "zip": "5805"
    },
    {
        "city": "Capiz",
        "location": "Jamindan",
        "zip": "5808"
    },
    {
        "city": "Capiz",
        "location": "Ma-ayon",
        "zip": "5809"
    },
    {
        "city": "Capiz",
        "location": "Mambusao",
        "zip": "5807"
    },
    {
        "city": "Capiz",
        "location": "Panay",
        "zip": "5801"
    },
    {
        "city": "Capiz",
        "location": "Panitan",
        "zip": "5815"
    },
    {
        "city": "Capiz",
        "location": "Pilar",
        "zip": "5804"
    },
    {
        "city": "Capiz",
        "location": "Pres. Roxas",
        "zip": "5803"
    },
    {
        "city": "Capiz",
        "location": "Puntevedra",
        "zip": "5802"
    },
    {
        "city": "Capiz",
        "location": "Roxas City",
        "zip": "5800"
    },
    {
        "city": "Capiz",
        "location": "Sapian",
        "zip": "5816"
    },
    {
        "city": "Capiz",
        "location": "Tapaz",
        "zip": "5814"
    },
    {
        "city": "Cebu",
        "location": "Alcantara",
        "zip": "6033"
    },
    {
        "city": "Cebu",
        "location": "Alcoy",
        "zip": "6023"
    },
    {
        "city": "Cebu",
        "location": "Alegria",
        "zip": "6030"
    },
    {
        "city": "Cebu",
        "location": "Aloguinsan",
        "zip": "6040"
    },
    {
        "city": "Cebu",
        "location": "Argao",
        "zip": "6021"
    },
    {
        "city": "Cebu",
        "location": "Asturias",
        "zip": "6042"
    },
    {
        "city": "Cebu",
        "location": "Badian",
        "zip": "6031"
    },
    {
        "city": "Cebu",
        "location": "Balamban",
        "zip": "6041"
    },
    {
        "city": "Cebu",
        "location": "Bantayan",
        "zip": "6042"
    },
    {
        "city": "Cebu",
        "location": "Barile",
        "zip": "6036"
    },
    {
        "city": "Cebu",
        "location": "Bogo",
        "zip": "6010"
    },
    {
        "city": "Cebu",
        "location": "Boljoon",
        "zip": "6024"
    },
    {
        "city": "Cebu",
        "location": "Borbon",
        "zip": "6008"
    },
    {
        "city": "Cebu",
        "location": "Carcar",
        "zip": "6019"
    },
    {
        "city": "Cebu",
        "location": "Carmen",
        "zip": "6005"
    },
    {
        "city": "Cebu",
        "location": "Catmon",
        "zip": "6006"
    },
    {
        "city": "Cebu",
        "location": "Cebu City",
        "zip": "6000"
    },
    {
        "city": "Cebu",
        "location": "Compostela",
        "zip": "6003"
    },
    {
        "city": "Cebu",
        "location": "Consolacion",
        "zip": "6001"
    },
    {
        "city": "Cebu",
        "location": "Cordova",
        "zip": "6017"
    },
    {
        "city": "Cebu",
        "location": "Daang-Bantayan",
        "zip": "6013"
    },
    {
        "city": "Cebu",
        "location": "Dalaguete",
        "zip": "6022"
    },
    {
        "city": "Cebu",
        "location": "Danao",
        "zip": "6004"
    },
    {
        "city": "Cebu",
        "location": "Dumanjug",
        "zip": "6035"
    },
    {
        "city": "Cebu",
        "location": "Ginatilan",
        "zip": "6026"
    },
    {
        "city": "Cebu",
        "location": "Lapu-Lapu City",
        "zip": "6015"
    },
    {
        "city": "Cebu",
        "location": "Liloan",
        "zip": "6002"
    },
    {
        "city": "Cebu",
        "location": "Mactan Airport",
        "zip": "6016"
    },
    {
        "city": "Cebu",
        "location": "Madridejos",
        "zip": "6053"
    },
    {
        "city": "Cebu",
        "location": "Malabuyoc",
        "zip": "6029"
    },
    {
        "city": "Cebu",
        "location": "Mandaue City",
        "zip": "6014"
    },
    {
        "city": "Cebu",
        "location": "Medellin",
        "zip": "6012"
    },
    {
        "city": "Cebu",
        "location": "Minglanilla",
        "zip": "6046"
    },
    {
        "city": "Cebu",
        "location": "Moalboal",
        "zip": "6032"
    },
    {
        "city": "Cebu",
        "location": "Naga",
        "zip": "6037"
    },
    {
        "city": "Cebu",
        "location": "Oslob",
        "zip": "6025"
    },
    {
        "city": "Cebu",
        "location": "Pilar",
        "zip": "6048"
    },
    {
        "city": "Cebu",
        "location": "Pinamungahan",
        "zip": "6039"
    },
    {
        "city": "Cebu",
        "location": "Poro",
        "zip": "6049"
    },
    {
        "city": "Cebu",
        "location": "Ronda",
        "zip": "6034"
    },
    {
        "city": "Cebu",
        "location": "Samboan",
        "zip": "6027"
    },
    {
        "city": "Cebu",
        "location": "San Fernando",
        "zip": "6018"
    },
    {
        "city": "Cebu",
        "location": "San Francisco",
        "zip": "6050"
    },
    {
        "city": "Cebu",
        "location": "San Remegio",
        "zip": "6011"
    },
    {
        "city": "Cebu",
        "location": "Santa Fe",
        "zip": "6047"
    },
    {
        "city": "Cebu",
        "location": "Santander",
        "zip": "6026"
    },
    {
        "city": "Cebu",
        "location": "Sibonga",
        "zip": "6020"
    },
    {
        "city": "Cebu",
        "location": "Sogod",
        "zip": "6007"
    },
    {
        "city": "Cebu",
        "location": "Tabogon",
        "zip": "6009"
    },
    {
        "city": "Cebu",
        "location": "Tabuelan",
        "zip": "6044"
    },
    {
        "city": "Cebu",
        "location": "Talisay",
        "zip": "6045"
    },
    {
        "city": "Cebu",
        "location": "Toledo City",
        "zip": "6038"
    },
    {
        "city": "Cebu",
        "location": "Tuburan",
        "zip": "6043"
    },
    {
        "city": "Cebu",
        "location": "Todela",
        "zip": "6051"
    },
    {
        "city": "Guimaras",
        "location": "Buenavista",
        "zip": "5044"
    },
    {
        "city": "Guimaras",
        "location": "Jordan",
        "zip": "5045"
    },
    {
        "city": "Guimaras",
        "location": "Nueva Valencia",
        "zip": "5046"
    },
    {
        "city": "Iloilo",
        "location": "Ajuy",
        "zip": "5012"
    },
    {
        "city": "Iloilo",
        "location": "Alimodian",
        "zip": "5028"
    },
    {
        "city": "Iloilo",
        "location": "Anilao",
        "zip": "5009"
    },
    {
        "city": "Iloilo",
        "location": "Badiangan",
        "zip": "5033"
    },
    {
        "city": "Iloilo",
        "location": "Balasan",
        "zip": "5018"
    },
    {
        "city": "Iloilo",
        "location": "Banate",
        "zip": "5010"
    },
    {
        "city": "Iloilo",
        "location": "Barotac Nuevo",
        "zip": "5007"
    },
    {
        "city": "Iloilo",
        "location": "Barotac Viejo",
        "zip": "5011"
    },
    {
        "city": "Iloilo",
        "location": "Batad",
        "zip": "5016"
    },
    {
        "city": "Iloilo",
        "location": "Bingawan",
        "zip": "5041"
    },
    {
        "city": "Iloilo",
        "location": "Cabatuan",
        "zip": "5031"
    },
    {
        "city": "Iloilo",
        "location": "Calinog",
        "zip": "5040"
    },
    {
        "city": "Iloilo",
        "location": "Carles",
        "zip": "5019"
    },
    {
        "city": "Iloilo",
        "location": "Conception",
        "zip": "5013"
    },
    {
        "city": "Iloilo",
        "location": "Dingle",
        "zip": "5035"
    },
    {
        "city": "Iloilo",
        "location": "Dueñas",
        "zip": "5038"
    },
    {
        "city": "Iloilo",
        "location": "Dumangas",
        "zip": "5006"
    },
    {
        "city": "Iloilo",
        "location": "Estancia",
        "zip": "5017"
    },
    {
        "city": "Iloilo",
        "location": "Guimbal",
        "zip": "5022"
    },
    {
        "city": "Iloilo",
        "location": "Igbaras",
        "zip": "5029"
    },
    {
        "city": "Iloilo",
        "location": "Iloilo City",
        "zip": "5000"
    },
    {
        "city": "Iloilo",
        "location": "Janiuay",
        "zip": "5034"
    },
    {
        "city": "Iloilo",
        "location": "Lambunao",
        "zip": "5042"
    },
    {
        "city": "Iloilo",
        "location": "Leganes",
        "zip": "5003"
    },
    {
        "city": "Iloilo",
        "location": "Lemery",
        "zip": "5043"
    },
    {
        "city": "Iloilo",
        "location": "Leon",
        "zip": "5026"
    },
    {
        "city": "Iloilo",
        "location": "Maasin",
        "zip": "5030"
    },
    {
        "city": "Iloilo",
        "location": "Miagao",
        "zip": "5023"
    },
    {
        "city": "Iloilo",
        "location": "Mina",
        "zip": "5032"
    },
    {
        "city": "Iloilo",
        "location": "New Lucena",
        "zip": "5005"
    },
    {
        "city": "Iloilo",
        "location": "Oton",
        "zip": "5020"
    },
    {
        "city": "Iloilo",
        "location": "Passi",
        "zip": "5037"
    },
    {
        "city": "Iloilo",
        "location": "Pavia",
        "zip": "5001"
    },
    {
        "city": "Iloilo",
        "location": "Pototan",
        "zip": "5008"
    },
    {
        "city": "Iloilo",
        "location": "San Dionisio",
        "zip": "5015"
    },
    {
        "city": "Iloilo",
        "location": "San Enrique",
        "zip": "5036"
    },
    {
        "city": "Iloilo",
        "location": "San Joaquin",
        "zip": "5024"
    },
    {
        "city": "Iloilo",
        "location": "San Miguel",
        "zip": "5025"
    },
    {
        "city": "Iloilo",
        "location": "San Rafael",
        "zip": "5039"
    },
    {
        "city": "Iloilo",
        "location": "Santa Barbara",
        "zip": "5002"
    },
    {
        "city": "Iloilo",
        "location": "Sara",
        "zip": "5014"
    },
    {
        "city": "Iloilo",
        "location": "Tigbauan",
        "zip": "5021"
    },
    {
        "city": "Iloilo",
        "location": "Tubungan",
        "zip": "5027"
    },
    {
        "city": "Iloilo",
        "location": "Zarraga",
        "zip": "5004"
    },
    {
        "city": "Leyte",
        "location": "Abuyog",
        "zip": "6510"
    },
    {
        "city": "Leyte",
        "location": "Alangalang",
        "zip": "6517"
    },
    {
        "city": "Leyte",
        "location": "Albuera",
        "zip": "6542"
    },
    {
        "city": "Leyte",
        "location": "Babatngon",
        "zip": "6520"
    },
    {
        "city": "Leyte",
        "location": "Barugo",
        "zip": "6519"
    },
    {
        "city": "Leyte",
        "location": "Bato",
        "zip": "6525"
    },
    {
        "city": "Leyte",
        "location": "Baybay",
        "zip": "6521"
    },
    {
        "city": "Leyte",
        "location": "Burauen",
        "zip": "6516"
    },
    {
        "city": "Leyte",
        "location": "Calubian",
        "zip": "6534"
    },
    {
        "city": "Leyte",
        "location": "Capoocan",
        "zip": "6530"
    },
    {
        "city": "Leyte",
        "location": "Carigara",
        "zip": "6529"
    },
    {
        "city": "Leyte",
        "location": "Dagami",
        "zip": "6515"
    },
    {
        "city": "Leyte",
        "location": "Dulag",
        "zip": "6505"
    },
    {
        "city": "Leyte",
        "location": "Hilongos",
        "zip": "6524"
    },
    {
        "city": "Leyte",
        "location": "Hindang",
        "zip": "6523"
    },
    {
        "city": "Leyte",
        "location": "Inopacan",
        "zip": "6522"
    },
    {
        "city": "Leyte",
        "location": "Isabel",
        "zip": "6539"
    },
    {
        "city": "Leyte",
        "location": "Jaro",
        "zip": "6527"
    },
    {
        "city": "Leyte",
        "location": "Javier",
        "zip": "6511"
    },
    {
        "city": "Leyte",
        "location": "Julita",
        "zip": "6506"
    },
    {
        "city": "Leyte",
        "location": "Kananga",
        "zip": "6531"
    },
    {
        "city": "Leyte",
        "location": "La Paz",
        "zip": "6508"
    },
    {
        "city": "Leyte",
        "location": "Leyte",
        "zip": "6533"
    },
    {
        "city": "Leyte",
        "location": "Macarthur",
        "zip": "6509"
    },
    {
        "city": "Leyte",
        "location": "Mahaplag",
        "zip": "6512"
    },
    {
        "city": "Leyte",
        "location": "Matag-Ob",
        "zip": "6532"
    },
    {
        "city": "Leyte",
        "location": "Matalom",
        "zip": "6526"
    },
    {
        "city": "Leyte",
        "location": "Mayorga",
        "zip": "6507"
    },
    {
        "city": "Leyte",
        "location": "Merida",
        "zip": "6540"
    },
    {
        "city": "Leyte",
        "location": "Ormoc City",
        "zip": "6541"
    },
    {
        "city": "Leyte",
        "location": "Palo",
        "zip": "6501"
    },
    {
        "city": "Leyte",
        "location": "Palumpon",
        "zip": "6538"
    },
    {
        "city": "Leyte",
        "location": "Pastrana",
        "zip": "6514"
    },
    {
        "city": "Leyte",
        "location": "San Isidro",
        "zip": "6535"
    },
    {
        "city": "Leyte",
        "location": "San Miguel",
        "zip": "6518"
    },
    {
        "city": "Leyte",
        "location": "Santa Fe",
        "zip": "6513"
    },
    {
        "city": "Leyte",
        "location": "Tabango",
        "zip": "6536"
    },
    {
        "city": "Leyte",
        "location": "Tabontabon",
        "zip": "6504"
    },
    {
        "city": "Leyte",
        "location": "Tacloban City",
        "zip": "6500"
    },
    {
        "city": "Leyte",
        "location": "Tanauan",
        "zip": "6502"
    },
    {
        "city": "Leyte",
        "location": "Tolosa",
        "zip": "6503"
    },
    {
        "city": "Leyte",
        "location": "Tunga",
        "zip": "6528"
    },
    {
        "city": "Leyte",
        "location": "Villaba",
        "zip": "6537"
    },
    {
        "city": "Southern Leyte",
        "location": "Anahawan",
        "zip": "6610"
    },
    {
        "city": "Southern Leyte",
        "location": "Bomtoc",
        "zip": "6604"
    },
    {
        "city": "Southern Leyte",
        "location": "Hinunangan",
        "zip": "6608"
    },
    {
        "city": "Southern Leyte",
        "location": "Hinundayan",
        "zip": "6609"
    },
    {
        "city": "Southern Leyte",
        "location": "Libagon",
        "zip": "6615"
    },
    {
        "city": "Southern Leyte",
        "location": "Liloan",
        "zip": "6612"
    },
    {
        "city": "Southern Leyte",
        "location": "Maasin",
        "zip": "6600"
    },
    {
        "city": "Southern Leyte",
        "location": "Macrohon",
        "zip": "6601"
    },
    {
        "city": "Southern Leyte",
        "location": "Malitbog",
        "zip": "6603"
    },
    {
        "city": "Southern Leyte",
        "location": "Padre Burgos",
        "zip": "6602"
    },
    {
        "city": "Southern Leyte",
        "location": "Pintuyan",
        "zip": "6614"
    },
    {
        "city": "Southern Leyte",
        "location": "San Francisco",
        "zip": "6613"
    },
    {
        "city": "Southern Leyte",
        "location": "San Juan (Cabalian)",
        "zip": "6611"
    },
    {
        "city": "Southern Leyte",
        "location": "San Ricardo",
        "zip": "6617"
    },
    {
        "city": "Southern Leyte",
        "location": "Silago",
        "zip": "6607"
    },
    {
        "city": "Southern Leyte",
        "location": "Sogod",
        "zip": "6606"
    },
    {
        "city": "Southern Leyte",
        "location": "St. Bernard",
        "zip": "6616"
    },
    {
        "city": "Southern Leyte",
        "location": "Tomas Oppus",
        "zip": "6605"
    },
    {
        "city": "Masbate",
        "location": "Aroroy",
        "zip": "5414"
    },
    {
        "city": "Masbate",
        "location": "Baleno",
        "zip": "5413"
    },
    {
        "city": "Masbate",
        "location": "Balud",
        "zip": "5412"
    },
    {
        "city": "Masbate",
        "location": "Batuan",
        "zip": "5415"
    },
    {
        "city": "Masbate",
        "location": "Buenavista",
        "zip": "5421"
    },
    {
        "city": "Masbate",
        "location": "Cataingan",
        "zip": "5405"
    },
    {
        "city": "Masbate",
        "location": "Cawayan",
        "zip": "5405"
    },
    {
        "city": "Masbate",
        "location": "Claveria",
        "zip": "5419"
    },
    {
        "city": "Masbate",
        "location": "Dimasalang",
        "zip": "5403"
    },
    {
        "city": "Masbate",
        "location": "Esperanza",
        "zip": "5407"
    },
    {
        "city": "Masbate",
        "location": "Mandaon",
        "zip": "5411"
    },
    {
        "city": "Masbate",
        "location": "Masbate",
        "zip": "5400"
    },
    {
        "city": "Masbate",
        "location": "Milagros",
        "zip": "5410"
    },
    {
        "city": "Masbate",
        "location": "Mobo",
        "zip": "5401"
    },
    {
        "city": "Masbate",
        "location": "Montreal",
        "zip": "5418"
    },
    {
        "city": "Masbate",
        "location": "Palanas",
        "zip": "5404"
    },
    {
        "city": "Masbate",
        "location": "Pio V. Cruz",
        "zip": "5406"
    },
    {
        "city": "Masbate",
        "location": "Placer",
        "zip": "5408"
    },
    {
        "city": "Masbate",
        "location": "San Fernando",
        "zip": "5416"
    },
    {
        "city": "Masbate",
        "location": "San Jacinto",
        "zip": "5417"
    },
    {
        "city": "Masbate",
        "location": "San Pascual",
        "zip": "5420"
    },
    {
        "city": "Masbate",
        "location": "Uson",
        "zip": "5402"
    },
    {
        "city": "Misamis Occidental",
        "location": "Aloran",
        "zip": "7206"
    },
    {
        "city": "Misamis Occidental",
        "location": "Baliangao",
        "zip": "7211"
    },
    {
        "city": "Misamis Occidental",
        "location": "Bonifacio",
        "zip": "7215"
    },
    {
        "city": "Misamis Occidental",
        "location": "Calamba",
        "zip": "7210"
    },
    {
        "city": "Misamis Occidental",
        "location": "Clarin",
        "zip": "7201"
    },
    {
        "city": "Misamis Occidental",
        "location": "Concepcion",
        "zip": "7213"
    },
    {
        "city": "Misamis Occidental",
        "location": "Jimenez",
        "zip": "7204"
    },
    {
        "city": "Misamis Occidental",
        "location": "Lopez Jaena",
        "zip": "7208"
    },
    {
        "city": "Misamis Occidental",
        "location": "Oroquieta City",
        "zip": "7207"
    },
    {
        "city": "Misamis Occidental",
        "location": "Ozamis City",
        "zip": "7200"
    },
    {
        "city": "Misamis Occidental",
        "location": "Panaon",
        "zip": "7205"
    },
    {
        "city": "Misamis Occidental",
        "location": "Plaridel",
        "zip": "7209"
    },
    {
        "city": "Misamis Occidental",
        "location": "Sapang Dalaga",
        "zip": "7212"
    },
    {
        "city": "Misamis Occidental",
        "location": "Sinacaban",
        "zip": "7203"
    },
    {
        "city": "Misamis Occidental",
        "location": "Tangub City",
        "zip": "7214"
    },
    {
        "city": "Misamis Occidental",
        "location": "Tudela",
        "zip": "7202"
    },
    {
        "city": "Misamis Oriental",
        "location": "Alubijid",
        "zip": "9018"
    },
    {
        "city": "Misamis Oriental",
        "location": "Balingasag",
        "zip": "9005"
    },
    {
        "city": "Misamis Oriental",
        "location": "Balinguan",
        "zip": "9011"
    },
    {
        "city": "Misamis Oriental",
        "location": "Binuangan",
        "zip": "9008"
    },
    {
        "city": "Misamis Oriental",
        "location": "Cagayan de Oro City",
        "zip": "9000"
    },
    {
        "city": "Misamis Oriental",
        "location": "Claveria",
        "zip": "9004"
    },
    {
        "city": "Misamis Oriental",
        "location": "El Salvador",
        "zip": "9017"
    },
    {
        "city": "Misamis Oriental",
        "location": "Gingoog City",
        "zip": "9014"
    },
    {
        "city": "Misamis Oriental",
        "location": "Gitaum",
        "zip": "9020"
    },
    {
        "city": "Misamis Oriental",
        "location": "Initao",
        "zip": "9022"
    },
    {
        "city": "Misamis Oriental",
        "location": "Jasaan",
        "zip": "9003"
    },
    {
        "city": "Misamis Oriental",
        "location": "Kinogitan",
        "zip": "9010"
    },
    {
        "city": "Misamis Oriental",
        "location": "Lagonglong",
        "zip": "9006"
    },
    {
        "city": "Misamis Oriental",
        "location": "Laguidingan",
        "zip": "9019"
    },
    {
        "city": "Misamis Oriental",
        "location": "Libertad",
        "zip": "9021"
    },
    {
        "city": "Misamis Oriental",
        "location": "Lugait",
        "zip": "9025"
    },
    {
        "city": "Misamis Oriental",
        "location": "Magsaysay",
        "zip": "9015"
    },
    {
        "city": "Misamis Oriental",
        "location": "Manticao",
        "zip": "9024"
    },
    {
        "city": "Misamis Oriental",
        "location": "Medina",
        "zip": "9013"
    },
    {
        "city": "Misamis Oriental",
        "location": "Naawan",
        "zip": "9023"
    },
    {
        "city": "Misamis Oriental",
        "location": "Opol",
        "zip": "9016"
    },
    {
        "city": "Misamis Oriental",
        "location": "Salay",
        "zip": "9007"
    },
    {
        "city": "Misamis Oriental",
        "location": "Sugbongcogon",
        "zip": "9009"
    },
    {
        "city": "Misamis Oriental",
        "location": "Tagoloan",
        "zip": "9001"
    },
    {
        "city": "Misamis Oriental",
        "location": "Talisayan",
        "zip": "9012"
    },
    {
        "city": "Misamis Oriental",
        "location": "Villanueva",
        "zip": "9002"
    },
    {
        "city": "Negros Occidental",
        "location": "Bacolod City",
        "zip": "6100"
    },
    {
        "city": "Negros Occidental",
        "location": "Bago City",
        "zip": "6101"
    },
    {
        "city": "Negros Occidental",
        "location": "Binalbagan",
        "zip": "6107"
    },
    {
        "city": "Negros Occidental",
        "location": "Cadiz City",
        "zip": "6121"
    },
    {
        "city": "Negros Occidental",
        "location": "Calatrava",
        "zip": "6126"
    },
    {
        "city": "Negros Occidental",
        "location": "Candoni",
        "zip": "6110"
    },
    {
        "city": "Negros Occidental",
        "location": "Enrique Magalona",
        "zip": "6118"
    },
    {
        "city": "Negros Occidental",
        "location": "Escalante",
        "zip": "6124"
    },
    {
        "city": "Negros Occidental",
        "location": "Himamaylan",
        "zip": "6108"
    },
    {
        "city": "Negros Occidental",
        "location": "Hinigaran",
        "zip": "6106"
    },
    {
        "city": "Negros Occidental",
        "location": "Hinoba-ari",
        "zip": "6114"
    },
    {
        "city": "Negros Occidental",
        "location": "Ilog",
        "zip": "6109"
    },
    {
        "city": "Negros Occidental",
        "location": "Isabela",
        "zip": "6128"
    },
    {
        "city": "Negros Occidental",
        "location": "Kabangkalan",
        "zip": "6100"
    },
    {
        "city": "Negros Occidental",
        "location": "Kauayan",
        "zip": "6112"
    },
    {
        "city": "Negros Occidental",
        "location": "La Carlota City",
        "zip": "6130"
    },
    {
        "city": "Negros Occidental",
        "location": "La Castillana",
        "zip": "6131"
    },
    {
        "city": "Negros Occidental",
        "location": "Manapla",
        "zip": "6120"
    },
    {
        "city": "Negros Occidental",
        "location": "Moises Padilla",
        "zip": "6132"
    },
    {
        "city": "Negros Occidental",
        "location": "Murcia",
        "zip": "6129"
    },
    {
        "city": "Negros Occidental",
        "location": "Paraiso (Fabrica)",
        "zip": "6123"
    },
    {
        "city": "Negros Occidental",
        "location": "Pulupandan",
        "zip": "6102"
    },
    {
        "city": "Negros Occidental",
        "location": "Pontevedra",
        "zip": "6105"
    },
    {
        "city": "Negros Occidental",
        "location": "Sagay",
        "zip": "6122"
    },
    {
        "city": "Negros Occidental",
        "location": "San Carlos City",
        "zip": "6127"
    },
    {
        "city": "Negros Occidental",
        "location": "San Enrique",
        "zip": "6104"
    },
    {
        "city": "Negros Occidental",
        "location": "Silay City",
        "zip": "6116"
    },
    {
        "city": "Negros Occidental",
        "location": "Silay Hawaiian Central",
        "zip": "6117"
    },
    {
        "city": "Negros Occidental",
        "location": "Sipalay",
        "zip": "6113"
    },
    {
        "city": "Negros Occidental",
        "location": "Talisay",
        "zip": "6115"
    },
    {
        "city": "Negros Occidental",
        "location": "Toboso",
        "zip": "6125"
    },
    {
        "city": "Negros Occidental",
        "location": "Villadolid",
        "zip": "6103"
    },
    {
        "city": "Negros Occidental",
        "location": "Victorias",
        "zip": "6119"
    },
    {
        "city": "Negros Oriental",
        "location": "Amian",
        "zip": "6203"
    },
    {
        "city": "Negros Oriental",
        "location": "Ayungon",
        "zip": "6210"
    },
    {
        "city": "Negros Oriental",
        "location": "Bacung",
        "zip": "6216"
    },
    {
        "city": "Negros Oriental",
        "location": "Bais City",
        "zip": "6206"
    },
    {
        "city": "Negros Oriental",
        "location": "Basay",
        "zip": "6222"
    },
    {
        "city": "Negros Oriental",
        "location": "Bayawan",
        "zip": "6221"
    },
    {
        "city": "Negros Oriental",
        "location": "Bindoy",
        "zip": "6209"
    },
    {
        "city": "Negros Oriental",
        "location": "Canlaon City",
        "zip": "6223"
    },
    {
        "city": "Negros Oriental",
        "location": "Dauin",
        "zip": "6217"
    },
    {
        "city": "Negros Oriental",
        "location": "Dumaguete City",
        "zip": "6200"
    },
    {
        "city": "Negros Oriental",
        "location": "Guihulngan",
        "zip": "6214"
    },
    {
        "city": "Negros Oriental",
        "location": "Jimalalud",
        "zip": "6212"
    },
    {
        "city": "Negros Oriental",
        "location": "La Libertad",
        "zip": "6213"
    },
    {
        "city": "Negros Oriental",
        "location": "Mabinay",
        "zip": "6208"
    },
    {
        "city": "Negros Oriental",
        "location": "Manjuyod",
        "zip": "6208"
    },
    {
        "city": "Negros Oriental",
        "location": "Pamplona",
        "zip": "6205"
    },
    {
        "city": "Negros Oriental",
        "location": "San Jose",
        "zip": "6202"
    },
    {
        "city": "Negros Oriental",
        "location": "Siaton",
        "zip": "6219"
    },
    {
        "city": "Negros Oriental",
        "location": "Sibulan",
        "zip": "6201"
    },
    {
        "city": "Negros Oriental",
        "location": "Sta. Catalina",
        "zip": "6220"
    },
    {
        "city": "Negros Oriental",
        "location": "Tanjay",
        "zip": "6204"
    },
    {
        "city": "Negros Oriental",
        "location": "Tayasan",
        "zip": "6211"
    },
    {
        "city": "Negros Oriental",
        "location": "Valencia",
        "zip": "6215"
    },
    {
        "city": "Negros Oriental",
        "location": "Valle Hermoso",
        "zip": "6224"
    },
    {
        "city": "Negros Oriental",
        "location": "Zamboanguita",
        "zip": "6218"
    },
    {
        "city": "Romblon",
        "location": "Alcantara",
        "zip": "5509"
    },
    {
        "city": "Romblon",
        "location": "Banton (Jones)",
        "zip": "5515"
    },
    {
        "city": "Romblon",
        "location": "Cajidiocan",
        "zip": "5512"
    },
    {
        "city": "Romblon",
        "location": "Calatrava",
        "zip": "5503"
    },
    {
        "city": "Romblon",
        "location": "Conception",
        "zip": "5516"
    },
    {
        "city": "Romblon",
        "location": "Corcuera",
        "zip": "5514"
    },
    {
        "city": "Romblon",
        "location": "Ferrol",
        "zip": "5506"
    },
    {
        "city": "Romblon",
        "location": "Imelda",
        "zip": "5502"
    },
    {
        "city": "Romblon",
        "location": "Looc",
        "zip": "5507"
    },
    {
        "city": "Romblon",
        "location": "Magdiwang",
        "zip": "5511"
    },
    {
        "city": "Romblon",
        "location": "Odiongan",
        "zip": "5505"
    },
    {
        "city": "Romblon",
        "location": "Romblon",
        "zip": "5500"
    },
    {
        "city": "Romblon",
        "location": "San Agustin",
        "zip": "5501"
    },
    {
        "city": "Romblon",
        "location": "San Andres",
        "zip": "5504"
    },
    {
        "city": "Romblon",
        "location": "San Fernando",
        "zip": "5513"
    },
    {
        "city": "Romblon",
        "location": "San Jose",
        "zip": "5510"
    },
    {
        "city": "Romblon",
        "location": "Santa Fe",
        "zip": "5508"
    },
    {
        "city": "Eastern Samar",
        "location": "Arteche",
        "zip": "6822"
    },
    {
        "city": "Eastern Samar",
        "location": "Balangiga",
        "zip": "6812"
    },
    {
        "city": "Eastern Samar",
        "location": "Balangkayan",
        "zip": "6801"
    },
    {
        "city": "Eastern Samar",
        "location": "Borongan",
        "zip": "6800"
    },
    {
        "city": "Eastern Samar",
        "location": "Can-Avid",
        "zip": "6806"
    },
    {
        "city": "Eastern Samar",
        "location": "Dolores",
        "zip": "6817"
    },
    {
        "city": "Eastern Samar",
        "location": "Gen. McArthur",
        "zip": "6805"
    },
    {
        "city": "Eastern Samar",
        "location": "Giporlos",
        "zip": "6811"
    },
    {
        "city": "Eastern Samar",
        "location": "Guiuan",
        "zip": "6809"
    },
    {
        "city": "Eastern Samar",
        "location": "Hernani",
        "zip": "6804"
    },
    {
        "city": "Eastern Samar",
        "location": "Jipapad",
        "zip": "6819"
    },
    {
        "city": "Eastern Samar",
        "location": "Lawa-an",
        "zip": "6813"
    },
    {
        "city": "Eastern Samar",
        "location": "Llorente",
        "zip": "6803"
    },
    {
        "city": "Eastern Samar",
        "location": "Maslog",
        "zip": "6820"
    },
    {
        "city": "Eastern Samar",
        "location": "Maydulog",
        "zip": "6802"
    },
    {
        "city": "Eastern Samar",
        "location": "Mercedes",
        "zip": "6808"
    },
    {
        "city": "Eastern Samar",
        "location": "Oras",
        "zip": "6818"
    },
    {
        "city": "Eastern Samar",
        "location": "Quinapundan",
        "zip": "6810"
    },
    {
        "city": "Eastern Samar",
        "location": "Salcedo",
        "zip": "6807"
    },
    {
        "city": "Eastern Samar",
        "location": "San Julian",
        "zip": "6814"
    },
    {
        "city": "Eastern Samar",
        "location": "San Policarpio",
        "zip": "6821"
    },
    {
        "city": "Eastern Samar",
        "location": "Sulat",
        "zip": "6815"
    },
    {
        "city": "Eastern Samar",
        "location": "Taft",
        "zip": "6816"
    },
    {
        "city": "Northern Samar",
        "location": "Allen",
        "zip": "6405"
    },
    {
        "city": "Northern Samar",
        "location": "Biri",
        "zip": "6410"
    },
    {
        "city": "Northern Samar",
        "location": "Bobon",
        "zip": "6401"
    },
    {
        "city": "Northern Samar",
        "location": "Capul",
        "zip": "6408"
    },
    {
        "city": "Northern Samar",
        "location": "Catarman",
        "zip": "6400"
    },
    {
        "city": "Northern Samar",
        "location": "Catubig",
        "zip": "6418"
    },
    {
        "city": "Northern Samar",
        "location": "Gamay",
        "zip": "6422"
    },
    {
        "city": "Northern Samar",
        "location": "La Navas",
        "zip": "6420"
    },
    {
        "city": "Northern Samar",
        "location": "Laoang",
        "zip": "6411"
    },
    {
        "city": "Northern Samar",
        "location": "Lapineg",
        "zip": "6423"
    },
    {
        "city": "Northern Samar",
        "location": "Lavezares",
        "zip": "6404"
    },
    {
        "city": "Northern Samar",
        "location": "Lope de Vega",
        "zip": "6403"
    },
    {
        "city": "Northern Samar",
        "location": "Mapanas",
        "zip": "6412"
    },
    {
        "city": "Northern Samar",
        "location": "Mondragon",
        "zip": "6417"
    },
    {
        "city": "Northern Samar",
        "location": "Palapag",
        "zip": "6421"
    },
    {
        "city": "Northern Samar",
        "location": "Pambujan",
        "zip": "6413"
    },
    {
        "city": "Northern Samar",
        "location": "Rosario",
        "zip": "6416"
    },
    {
        "city": "Northern Samar",
        "location": "San Antonio",
        "zip": "6407"
    },
    {
        "city": "Northern Samar",
        "location": "San Isidro",
        "zip": "6409"
    },
    {
        "city": "Northern Samar",
        "location": "San Jose",
        "zip": "6402"
    },
    {
        "city": "Northern Samar",
        "location": "San Roque",
        "zip": "6415"
    },
    {
        "city": "Northern Samar",
        "location": "San Vicente",
        "zip": "6419"
    },
    {
        "city": "Northern Samar",
        "location": "Silvino Lubos",
        "zip": "6414"
    },
    {
        "city": "Northern Samar",
        "location": "Victoria",
        "zip": "6406"
    },
    {
        "city": "Western Samar",
        "location": "Almagro",
        "zip": "6724"
    },
    {
        "city": "Western Samar",
        "location": "Basey",
        "zip": "6720"
    },
    {
        "city": "Western Samar",
        "location": "Calbayog City",
        "zip": "6710"
    },
    {
        "city": "Western Samar",
        "location": "Calbiga",
        "zip": "6715"
    },
    {
        "city": "Western Samar",
        "location": "Catbalogan",
        "zip": "6700"
    },
    {
        "city": "Western Samar",
        "location": "Daram",
        "zip": "6722"
    },
    {
        "city": "Western Samar",
        "location": "Gandara",
        "zip": "6706"
    },
    {
        "city": "Western Samar",
        "location": "Hinbangan",
        "zip": "6713"
    },
    {
        "city": "Western Samar",
        "location": "Jiabong",
        "zip": "6701"
    },
    {
        "city": "Western Samar",
        "location": "Marabut",
        "zip": "6721"
    },
    {
        "city": "Western Samar",
        "location": "Matuguinao",
        "zip": "6708"
    },
    {
        "city": "Western Samar",
        "location": "Motiong",
        "zip": "6702"
    },
    {
        "city": "Western Samar",
        "location": "Pagsanjan",
        "zip": "6705"
    },
    {
        "city": "Western Samar",
        "location": "Pinabacdao",
        "zip": "6716"
    },
    {
        "city": "Western Samar",
        "location": "San Jorge",
        "zip": "6707"
    },
    {
        "city": "Western Samar",
        "location": "San Jose de Bauan",
        "zip": "6723"
    },
    {
        "city": "Western Samar",
        "location": "San Sebastian",
        "zip": "6714"
    },
    {
        "city": "Western Samar",
        "location": "Sta. Margarita",
        "zip": "6709"
    },
    {
        "city": "Western Samar",
        "location": "Sta. Rita",
        "zip": "6718"
    },
    {
        "city": "Western Samar",
        "location": "Sto. Nino",
        "zip": "6711"
    },
    {
        "city": "Western Samar",
        "location": "Tagapulan",
        "zip": "6712"
    },
    {
        "city": "Western Samar",
        "location": "Talarora",
        "zip": "6719"
    },
    {
        "city": "Western Samar",
        "location": "Tarangnan",
        "zip": "6704"
    },
    {
        "city": "Western Samar",
        "location": "Villareal",
        "zip": "6717"
    },
    {
        "city": "Western Samar",
        "location": "Wright",
        "zip": "6703"
    },
    {
        "city": "Western Samar",
        "location": "Zumarraga",
        "zip": "6725"
    },
    {
        "city": "Siquijor",
        "location": "Enrile Villanueva",
        "zip": "6230"
    },
    {
        "city": "Siquijor",
        "location": "Larena",
        "zip": "6226"
    },
    {
        "city": "Siquijor",
        "location": "Lazi",
        "zip": "6228"
    },
    {
        "city": "Siquijor",
        "location": "Maria",
        "zip": "6229"
    },
    {
        "city": "Siquijor",
        "location": "San Juan",
        "zip": "6227"
    },
    {
        "city": "Siquijor",
        "location": "Siquijor",
        "zip": "6225"
    },
    {
        "city": "Agusan del Norte",
        "location": "Buenavista",
        "zip": "8601"
    },
    {
        "city": "Agusan del Norte",
        "location": "Butuan City",
        "zip": "8600"
    },
    {
        "city": "Agusan del Norte",
        "location": "Cabadbaran",
        "zip": "8605"
    },
    {
        "city": "Agusan del Norte",
        "location": "Carmen",
        "zip": "8603"
    },
    {
        "city": "Agusan del Norte",
        "location": "Jabonga",
        "zip": "8607"
    },
    {
        "city": "Agusan del Norte",
        "location": "Kitcharao",
        "zip": "8609"
    },
    {
        "city": "Agusan del Norte",
        "location": "La Nieves",
        "zip": "8610"
    },
    {
        "city": "Agusan del Norte",
        "location": "Magallanes",
        "zip": "8604"
    },
    {
        "city": "Agusan del Norte",
        "location": "Nasipit",
        "zip": "8602"
    },
    {
        "city": "Agusan del Norte",
        "location": "Remedios T. Romualdez",
        "zip": "8611"
    },
    {
        "city": "Agusan del Norte",
        "location": "Santiago",
        "zip": "8608"
    },
    {
        "city": "Agusan del Norte",
        "location": "Tubay",
        "zip": "8606"
    },
    {
        "city": "Agusan del Sur",
        "location": "Bayugan",
        "zip": "8502"
    },
    {
        "city": "Agusan del Sur",
        "location": "Bunawan",
        "zip": "8506"
    },
    {
        "city": "Agusan del Sur",
        "location": "Esperanza",
        "zip": "8513"
    },
    {
        "city": "Agusan del Sur",
        "location": "La Paz",
        "zip": "8508"
    },
    {
        "city": "Agusan del Sur",
        "location": "Loreto",
        "zip": "8507"
    },
    {
        "city": "Agusan del Sur",
        "location": "Prosperidad",
        "zip": "8500"
    },
    {
        "city": "Agusan del Sur",
        "location": "Rosario",
        "zip": "8504"
    },
    {
        "city": "Agusan del Sur",
        "location": "San Francisco",
        "zip": "8501"
    },
    {
        "city": "Agusan del Sur",
        "location": "San Luis",
        "zip": "8511"
    },
    {
        "city": "Agusan del Sur",
        "location": "Santa Josefa",
        "zip": "8512"
    },
    {
        "city": "Agusan del Sur",
        "location": "Sibagat",
        "zip": "8503"
    },
    {
        "city": "Agusan del Sur",
        "location": "Talacogon",
        "zip": "8510"
    },
    {
        "city": "Agusan del Sur",
        "location": "Trento",
        "zip": "8505"
    },
    {
        "city": "Agusan del Sur",
        "location": "Veruela",
        "zip": "8509"
    },
    {
        "city": "Basilan",
        "location": "Isabela de Basilan",
        "zip": "7300"
    },
    {
        "city": "Basilan",
        "location": "Lamitan",
        "zip": "7302"
    },
    {
        "city": "Basilan",
        "location": "Lantawan",
        "zip": "7301"
    },
    {
        "city": "Basilan",
        "location": "Maluso",
        "zip": "7303"
    },
    {
        "city": "Basilan",
        "location": "Sumisip",
        "zip": "7305"
    },
    {
        "city": "Basilan",
        "location": "Tipo-tipo",
        "zip": "7304"
    },
    {
        "city": "Basilan",
        "location": "Tuburan",
        "zip": "7306"
    },
    {
        "city": "Bukidnon",
        "location": "Baungon",
        "zip": "8707"
    },
    {
        "city": "Bukidnon",
        "location": "Damulog",
        "zip": "8721"
    },
    {
        "city": "Bukidnon",
        "location": "Dangcagan",
        "zip": "8719"
    },
    {
        "city": "Bukidnon",
        "location": "Don Carlos",
        "zip": "8712"
    },
    {
        "city": "Bukidnon",
        "location": "Impasugong",
        "zip": "8702"
    },
    {
        "city": "Bukidnon",
        "location": "Kabanglasan",
        "zip": "8723"
    },
    {
        "city": "Bukidnon",
        "location": "Kadingilan",
        "zip": "8713"
    },
    {
        "city": "Bukidnon",
        "location": "Kalilangan",
        "zip": "8718"
    },
    {
        "city": "Bukidnon",
        "location": "Kibawe",
        "zip": "8720"
    },
    {
        "city": "Bukidnon",
        "location": "Kitaotao",
        "zip": "8716"
    },
    {
        "city": "Bukidnon",
        "location": "Lantapan",
        "zip": "8722"
    },
    {
        "city": "Bukidnon",
        "location": "Libuna",
        "zip": "8706"
    },
    {
        "city": "Bukidnon",
        "location": "Malaybalay",
        "zip": "8700"
    },
    {
        "city": "Bukidnon",
        "location": "Malitbog",
        "zip": "8704"
    },
    {
        "city": "Bukidnon",
        "location": "Manolo Fortich",
        "zip": "8703"
    },
    {
        "city": "Bukidnon",
        "location": "Maramag",
        "zip": "8714"
    },
    {
        "city": "Bukidnon",
        "location": "Musuan",
        "zip": "8710"
    },
    {
        "city": "Bukidnon",
        "location": "Pangantucan",
        "zip": "8717"
    },
    {
        "city": "Bukidnon",
        "location": "Philips",
        "zip": "8705"
    },
    {
        "city": "Bukidnon",
        "location": "Quezon",
        "zip": "8715"
    },
    {
        "city": "Bukidnon",
        "location": "San Fernando",
        "zip": "8711"
    },
    {
        "city": "Bukidnon",
        "location": "Sumilao",
        "zip": "8701"
    },
    {
        "city": "Bukidnon",
        "location": "Talakag",
        "zip": "8708"
    },
    {
        "city": "Bukidnon",
        "location": "Valencia",
        "zip": "8709"
    },
    {
        "city": "Camiguin",
        "location": "Catarman",
        "zip": "9104"
    },
    {
        "city": "Camiguin",
        "location": "Guinsiliban",
        "zip": "9102"
    },
    {
        "city": "Camiguin",
        "location": "Mahinog",
        "zip": "9101"
    },
    {
        "city": "Camiguin",
        "location": "Mambajao",
        "zip": "9100"
    },
    {
        "city": "Camiguin",
        "location": "Sagay",
        "zip": "9103"
    },
    {
        "city": "Compostela Valley",
        "location": "Compostela",
        "zip": "8803"
    },
    {
        "city": "Compostela Valley",
        "location": "Laak",
        "zip": "8810"
    },
    {
        "city": "Compostela Valley",
        "location": "Mabini",
        "zip": "8807"
    },
    {
        "city": "Compostela Valley",
        "location": "Maco",
        "zip": "8806"
    },
    {
        "city": "Compostela Valley",
        "location": "Maragusan",
        "zip": "8808"
    },
    {
        "city": "Compostela Valley",
        "location": "Mawab",
        "zip": "8802"
    },
    {
        "city": "Compostela Valley",
        "location": "Monkayo",
        "zip": "8805"
    },
    {
        "city": "Compostela Valley",
        "location": "Montevista",
        "zip": "8801"
    },
    {
        "city": "Compostela Valley",
        "location": "Nabunturan",
        "zip": "8800"
    },
    {
        "city": "Compostela Valley",
        "location": "New Bataan",
        "zip": "8804"
    },
    {
        "city": "Compostela Valley",
        "location": "Pantukan",
        "zip": "8809"
    },
    {
        "city": "North Cotabato",
        "location": "Alamada",
        "zip": "9413"
    },
    {
        "city": "North Cotabato",
        "location": "Aleosan",
        "zip": "9415"
    },
    {
        "city": "North Cotabato",
        "location": "Antipas",
        "zip": "9414"
    },
    {
        "city": "North Cotabato",
        "location": "Arakan",
        "zip": "9417"
    },
    {
        "city": "North Cotabato",
        "location": "Banisilan",
        "zip": "9416"
    },
    {
        "city": "North Cotabato",
        "location": "Carmen",
        "zip": "9408"
    },
    {
        "city": "North Cotabato",
        "location": "Kabacan",
        "zip": "9407"
    },
    {
        "city": "North Cotabato",
        "location": "Kidapawan",
        "zip": "9400"
    },
    {
        "city": "North Cotabato",
        "location": "Libungan",
        "zip": "9411"
    },
    {
        "city": "North Cotabato",
        "location": "Magpet",
        "zip": "9404"
    },
    {
        "city": "North Cotabato",
        "location": "Makilala",
        "zip": "9401"
    },
    {
        "city": "North Cotabato",
        "location": "Matalam",
        "zip": "9406"
    },
    {
        "city": "North Cotabato",
        "location": "Midsayap",
        "zip": "9410"
    },
    {
        "city": "North Cotabato",
        "location": "M'lang",
        "zip": "9402"
    },
    {
        "city": "North Cotabato",
        "location": "Pigkawayan",
        "zip": "9412"
    },
    {
        "city": "North Cotabato",
        "location": "Pikit",
        "zip": "9409"
    },
    {
        "city": "North Cotabato",
        "location": "Pres. Roxas",
        "zip": "9405"
    },
    {
        "city": "North Cotabato",
        "location": "Tulunan",
        "zip": "9403"
    },
    {
        "city": "South Cotabato",
        "location": "Banga",
        "zip": "9511"
    },
    {
        "city": "South Cotabato",
        "location": "Gen. Santos City",
        "zip": "9500"
    },
    {
        "city": "South Cotabato",
        "location": "Koronadal",
        "zip": "9506"
    },
    {
        "city": "South Cotabato",
        "location": "Norala",
        "zip": "9508"
    },
    {
        "city": "South Cotabato",
        "location": "Polomolok",
        "zip": "9504"
    },
    {
        "city": "South Cotabato",
        "location": "Santo Nino",
        "zip": "9509"
    },
    {
        "city": "South Cotabato",
        "location": "Surallah",
        "zip": "9512"
    },
    {
        "city": "South Cotabato",
        "location": "Tampacan",
        "zip": "9507"
    },
    {
        "city": "South Cotabato",
        "location": "Tantangan",
        "zip": "9510"
    },
    {
        "city": "South Cotabato",
        "location": "T'boli",
        "zip": "9513"
    },
    {
        "city": "South Cotabato",
        "location": "Tupi",
        "zip": "9505"
    },
    {
        "city": "Davao del Norte",
        "location": "Asuncion",
        "zip": "8102"
    },
    {
        "city": "Davao del Norte",
        "location": "Babak",
        "zip": "8118"
    },
    {
        "city": "Davao del Norte",
        "location": "Carmen",
        "zip": "8101"
    },
    {
        "city": "Davao del Norte",
        "location": "Kapalong",
        "zip": "8113"
    },
    {
        "city": "Davao del Norte",
        "location": "Kaputian",
        "zip": "8120"
    },
    {
        "city": "Davao del Norte",
        "location": "New Corella",
        "zip": "8104"
    },
    {
        "city": "Davao del Norte",
        "location": "Panabo",
        "zip": "8105"
    },
    {
        "city": "Davao del Norte",
        "location": "Samal",
        "zip": "8119"
    },
    {
        "city": "Davao del Norte",
        "location": "San Mariano",
        "zip": "8116"
    },
    {
        "city": "Davao del Norte",
        "location": "San Vicente",
        "zip": "8103"
    },
    {
        "city": "Davao del Norte",
        "location": "Santo Tomas",
        "zip": "8112"
    },
    {
        "city": "Davao del Norte",
        "location": "Tagum",
        "zip": "8100"
    },
    {
        "city": "Davao del Sur",
        "location": "Bansalan",
        "zip": "8005"
    },
    {
        "city": "Davao del Sur",
        "location": "Davao City",
        "zip": "8000"
    },
    {
        "city": "Davao del Sur",
        "location": "Digos",
        "zip": "8002"
    },
    {
        "city": "Davao del Sur",
        "location": "Don Marcelino",
        "zip": "8013"
    },
    {
        "city": "Davao del Sur",
        "location": "Hagunoy",
        "zip": "8006"
    },
    {
        "city": "Davao del Sur",
        "location": "Jose Abad Santos",
        "zip": "8014"
    },
    {
        "city": "Davao del Sur",
        "location": "Kiblawan",
        "zip": "8008"
    },
    {
        "city": "Davao del Sur",
        "location": "Magsaysay",
        "zip": "8004"
    },
    {
        "city": "Davao del Sur",
        "location": "Malalag",
        "zip": "8010"
    },
    {
        "city": "Davao del Sur",
        "location": "Malita",
        "zip": "8012"
    },
    {
        "city": "Davao del Sur",
        "location": "Matanao",
        "zip": "8003"
    },
    {
        "city": "Davao del Sur",
        "location": "Padada",
        "zip": "8007"
    },
    {
        "city": "Davao del Sur",
        "location": "Santa Cruz",
        "zip": "8001"
    },
    {
        "city": "Davao del Sur",
        "location": "Santa Maria",
        "zip": "8011"
    },
    {
        "city": "Davao del Sur",
        "location": "Sarangani",
        "zip": "8015"
    },
    {
        "city": "Davao Oriental",
        "location": "Baganga",
        "zip": "8204"
    },
    {
        "city": "Davao Oriental",
        "location": "Banaybanay",
        "zip": "8208"
    },
    {
        "city": "Davao Oriental",
        "location": "Boston",
        "zip": "8206"
    },
    {
        "city": "Davao Oriental",
        "location": "Caraga",
        "zip": "8203"
    },
    {
        "city": "Davao Oriental",
        "location": "Cateel",
        "zip": "8205"
    },
    {
        "city": "Davao Oriental",
        "location": "Gov. Generoso",
        "zip": "8210"
    },
    {
        "city": "Davao Oriental",
        "location": "Lopon",
        "zip": "8207"
    },
    {
        "city": "Davao Oriental",
        "location": "Manay",
        "zip": "8202"
    },
    {
        "city": "Davao Oriental",
        "location": "Mati",
        "zip": "8200"
    },
    {
        "city": "Davao Oriental",
        "location": "San Isidro",
        "zip": "8209"
    },
    {
        "city": "Davao Oriental",
        "location": "Tarragona",
        "zip": "8201"
    },
    {
        "city": "Lanao del Norte",
        "location": "Bacolod",
        "zip": "9205"
    },
    {
        "city": "Lanao del Norte",
        "location": "Baloi",
        "zip": "9217"
    },
    {
        "city": "Lanao del Norte",
        "location": "Baroy",
        "zip": "9210"
    },
    {
        "city": "Lanao del Norte",
        "location": "Iligan City",
        "zip": "9200"
    },
    {
        "city": "Lanao del Norte",
        "location": "Kapatagan",
        "zip": "9214"
    },
    {
        "city": "Lanao del Norte",
        "location": "Karomatan",
        "zip": "9215"
    },
    {
        "city": "Lanao del Norte",
        "location": "Kauswagan",
        "zip": "9202"
    },
    {
        "city": "Lanao del Norte",
        "location": "Kolambugan",
        "zip": "9207"
    },
    {
        "city": "Lanao del Norte",
        "location": "Lala",
        "zip": "9211"
    },
    {
        "city": "Lanao del Norte",
        "location": "Linamon",
        "zip": "9201"
    },
    {
        "city": "Lanao del Norte",
        "location": "Magsaysay",
        "zip": "9221"
    },
    {
        "city": "Lanao del Norte",
        "location": "Maigo",
        "zip": "9206"
    },
    {
        "city": "Lanao del Norte",
        "location": "Matugao",
        "zip": "9203"
    },
    {
        "city": "Lanao del Norte",
        "location": "Munai",
        "zip": "9219"
    },
    {
        "city": "Lanao del Norte",
        "location": "Nunungan",
        "zip": "9216"
    },
    {
        "city": "Lanao del Norte",
        "location": "Pantao Ragat",
        "zip": "9208"
    },
    {
        "city": "Lanao del Norte",
        "location": "Pantar",
        "zip": "9218"
    },
    {
        "city": "Lanao del Norte",
        "location": "Poona Piagapo",
        "zip": "9204"
    },
    {
        "city": "Lanao del Norte",
        "location": "Salvador",
        "zip": "9212"
    },
    {
        "city": "Lanao del Norte",
        "location": "Sapad",
        "zip": "9213"
    },
    {
        "city": "Lanao del Norte",
        "location": "Tagoloan",
        "zip": "9222"
    },
    {
        "city": "Lanao del Norte",
        "location": "Tangkal",
        "zip": "9220"
    },
    {
        "city": "Lanao del Norte",
        "location": "Tubod",
        "zip": "9209"
    },
    {
        "city": "Lanao del Sur",
        "location": "Bacolod Grande",
        "zip": "9316"
    },
    {
        "city": "Lanao del Sur",
        "location": "Blabagan",
        "zip": "9302"
    },
    {
        "city": "Lanao del Sur",
        "location": "Balindong",
        "zip": "9318"
    },
    {
        "city": "Lanao del Sur",
        "location": "Bayang",
        "zip": "9309"
    },
    {
        "city": "Lanao del Sur",
        "location": "Binidayan",
        "zip": "9310"
    },
    {
        "city": "Lanao del Sur",
        "location": "Baumbaran",
        "zip": "9320"
    },
    {
        "city": "Lanao del Sur",
        "location": "Butig",
        "zip": "9305"
    },
    {
        "city": "Lanao del Sur",
        "location": "Calanogas",
        "zip": "9319"
    },
    {
        "city": "Lanao del Sur",
        "location": "Ganassi",
        "zip": "9311"
    },
    {
        "city": "Lanao del Sur",
        "location": "Lumbatan",
        "zip": "9307"
    },
    {
        "city": "Lanao del Sur",
        "location": "Lumbayanague",
        "zip": "9306"
    },
    {
        "city": "Lanao del Sur",
        "location": "Macador Andong",
        "zip": "9308"
    },
    {
        "city": "Lanao del Sur",
        "location": "Madalum",
        "zip": "9315"
    },
    {
        "city": "Lanao del Sur",
        "location": "Madamba",
        "zip": "9314"
    },
    {
        "city": "Lanao del Sur",
        "location": "Malabang",
        "zip": "9300"
    },
    {
        "city": "Lanao del Sur",
        "location": "Maragong",
        "zip": "9303"
    },
    {
        "city": "Lanao del Sur",
        "location": "Pagayawan",
        "zip": "9312"
    },
    {
        "city": "Lanao del Sur",
        "location": "Pualas",
        "zip": "9313"
    },
    {
        "city": "Lanao del Sur",
        "location": "Sultan Gumander",
        "zip": "9303"
    },
    {
        "city": "Lanao del Sur",
        "location": "Tagoloan II",
        "zip": "9321"
    },
    {
        "city": "Lanao del Sur",
        "location": "Tubaran",
        "zip": "9304"
    },
    {
        "city": "Lanao del Sur",
        "location": "Tugaya",
        "zip": "9317"
    },
    {
        "city": "Lanao del Sur",
        "location": "Buadiposo Buntong",
        "zip": "9714"
    },
    {
        "city": "Lanao del Sur",
        "location": "Bubong",
        "zip": "9708"
    },
    {
        "city": "Lanao del Sur",
        "location": "Kapal",
        "zip": "9709"
    },
    {
        "city": "Lanao del Sur",
        "location": "Lumba Bayabao",
        "zip": "9703"
    },
    {
        "city": "Lanao del Sur",
        "location": "Maguing",
        "zip": "9715"
    },
    {
        "city": "Lanao del Sur",
        "location": "Marangtao",
        "zip": "9711"
    },
    {
        "city": "Lanao del Sur",
        "location": "Marawi City",
        "zip": "9700"
    },
    {
        "city": "Lanao del Sur",
        "location": "Masio",
        "zip": "9706"
    },
    {
        "city": "Lanao del Sur",
        "location": "Mulondo",
        "zip": "9702"
    },
    {
        "city": "Lanao del Sur",
        "location": "Piagapo",
        "zip": "9710"
    },
    {
        "city": "Lanao del Sur",
        "location": "Poona Bayabao",
        "zip": "9705"
    },
    {
        "city": "Lanao del Sur",
        "location": "Ramain-Ditsaan",
        "zip": "9713"
    },
    {
        "city": "Lanao del Sur",
        "location": "Saguiaran",
        "zip": "9701"
    },
    {
        "city": "Lanao del Sur",
        "location": "Tamparan",
        "zip": "9704"
    },
    {
        "city": "Lanao del Sur",
        "location": "Taraka",
        "zip": "9712"
    },
    {
        "city": "Lanao del Sur",
        "location": "Wao",
        "zip": "9716"
    },
    {
        "city": "Maguindanao",
        "location": "Ampatuan",
        "zip": "9609"
    },
    {
        "city": "Maguindanao",
        "location": "Barira",
        "zip": "9614"
    },
    {
        "city": "Maguindanao",
        "location": "Buldon",
        "zip": "9615"
    },
    {
        "city": "Maguindanao",
        "location": "Buluan",
        "zip": "9616"
    },
    {
        "city": "Maguindanao",
        "location": "Cotabato City",
        "zip": "9600"
    },
    {
        "city": "Maguindanao",
        "location": "Datu Paglas",
        "zip": "9617"
    },
    {
        "city": "Maguindanao",
        "location": "Datu Piang",
        "zip": "9607"
    },
    {
        "city": "Maguindanao",
        "location": "Datu Odin Sinsuat (Dinaig)",
        "zip": "9601"
    },
    {
        "city": "Maguindanao",
        "location": "Gen. S. K. Datun",
        "zip": "9618"
    },
    {
        "city": "Maguindanao",
        "location": "Kabuntulan",
        "zip": "9606"
    },
    {
        "city": "Maguindanao",
        "location": "Maganoy",
        "zip": "9608"
    },
    {
        "city": "Maguindanao",
        "location": "Matanog",
        "zip": "9613"
    },
    {
        "city": "Maguindanao",
        "location": "Pagalungan",
        "zip": "9610"
    },
    {
        "city": "Maguindanao",
        "location": "Parang",
        "zip": "9604"
    },
    {
        "city": "Maguindanao",
        "location": "South Upi",
        "zip": "9603"
    },
    {
        "city": "Maguindanao",
        "location": "Sultan Kudarat",
        "zip": "9605"
    },
    {
        "city": "Maguindanao",
        "location": "Sultan Sa Barongis",
        "zip": "9611"
    },
    {
        "city": "Maguindanao",
        "location": "Talayan",
        "zip": "9612"
    },
    {
        "city": "Maguindanao",
        "location": "Upi",
        "zip": "9602"
    },
    {
        "city": "Sarangani",
        "location": "Alabel",
        "zip": "9501"
    },
    {
        "city": "Sarangani",
        "location": "Glan",
        "zip": "9517"
    },
    {
        "city": "Sarangani",
        "location": "Kiamba",
        "zip": "9514"
    },
    {
        "city": "Sarangani",
        "location": "Maasim",
        "zip": "9502"
    },
    {
        "city": "Sarangani",
        "location": "Maitum",
        "zip": "9515"
    },
    {
        "city": "Sarangani",
        "location": "Malapatan",
        "zip": "9516"
    },
    {
        "city": "Sarangani",
        "location": "Malungon",
        "zip": "9503"
    },
    {
        "city": "Sultan Kudarat",
        "location": "Bagumbayan",
        "zip": "9810"
    },
    {
        "city": "Sultan Kudarat",
        "location": "Colombio",
        "zip": "9801"
    },
    {
        "city": "Sultan Kudarat",
        "location": "Esperanza (Ampatuan)",
        "zip": "9806"
    },
    {
        "city": "Sultan Kudarat",
        "location": "Isulan",
        "zip": "9805"
    },
    {
        "city": "Sultan Kudarat",
        "location": "Kalamansig",
        "zip": "9808"
    },
    {
        "city": "Sultan Kudarat",
        "location": "Lebak (Salaman)",
        "zip": "9807"
    },
    {
        "city": "Sultan Kudarat",
        "location": "Lutayan",
        "zip": "9803"
    },
    {
        "city": "Sultan Kudarat",
        "location": "Mariano Marcos",
        "zip": "9802"
    },
    {
        "city": "Sultan Kudarat",
        "location": "Palimbang",
        "zip": "9809"
    },
    {
        "city": "Sultan Kudarat",
        "location": "Pres. Quirino",
        "zip": "9804"
    },
    {
        "city": "Sultan Kudarat",
        "location": "Sen. Ninoy Aquino",
        "zip": "9811"
    },
    {
        "city": "Sultan Kudarat",
        "location": "Takurong",
        "zip": "9800"
    },
    {
        "city": "Sulu",
        "location": "Indanan",
        "zip": "7407"
    },
    {
        "city": "Sulu",
        "location": "Jolo",
        "zip": "7400"
    },
    {
        "city": "Sulu",
        "location": "Kalingalan Kalauang",
        "zip": "7416"
    },
    {
        "city": "Sulu",
        "location": "Lugus",
        "zip": "7411"
    },
    {
        "city": "Sulu",
        "location": "Luuk",
        "zip": "7404"
    },
    {
        "city": "Sulu",
        "location": "Maimbung",
        "zip": "7409"
    },
    {
        "city": "Sulu",
        "location": "Marungas",
        "zip": "7413"
    },
    {
        "city": "Sulu",
        "location": "Panamao",
        "zip": "7402"
    },
    {
        "city": "Sulu",
        "location": "Panglima Estino",
        "zip": "7415"
    },
    {
        "city": "Sulu",
        "location": "Panguntaran",
        "zip": "7414"
    },
    {
        "city": "Sulu",
        "location": "Parang",
        "zip": "7408"
    },
    {
        "city": "Sulu",
        "location": "Pata",
        "zip": "7405"
    },
    {
        "city": "Sulu",
        "location": "Patikul",
        "zip": "7401"
    },
    {
        "city": "Sulu",
        "location": "Siasi",
        "zip": "7412"
    },
    {
        "city": "Sulu",
        "location": "Talipao",
        "zip": "7403"
    },
    {
        "city": "Sulu",
        "location": "Tapul",
        "zip": "7410"
    },
    {
        "city": "Sulu",
        "location": "Tongkil",
        "zip": "7406"
    },
    {
        "city": "Suriagao del Norte",
        "location": "Alegria",
        "zip": "8425"
    },
    {
        "city": "Suriagao del Norte",
        "location": "Bacuag",
        "zip": "8408"
    },
    {
        "city": "Suriagao del Norte",
        "location": "Basilisa (Rizal)",
        "zip": "8413"
    },
    {
        "city": "Suriagao del Norte",
        "location": "Burgos",
        "zip": "8424"
    },
    {
        "city": "Suriagao del Norte",
        "location": "Cagdianao",
        "zip": "8411"
    },
    {
        "city": "Suriagao del Norte",
        "location": "Claver",
        "zip": "8410"
    },
    {
        "city": "Suriagao del Norte",
        "location": "Dapa",
        "zip": "8417"
    },
    {
        "city": "Suriagao del Norte",
        "location": "Del Carmen",
        "zip": "8418"
    },
    {
        "city": "Suriagao del Norte",
        "location": "Dinagat",
        "zip": "8412"
    },
    {
        "city": "Suriagao del Norte",
        "location": "Gen. Luna",
        "zip": "8419"
    },
    {
        "city": "Suriagao del Norte",
        "location": "Gigaquit",
        "zip": "8409"
    },
    {
        "city": "Suriagao del Norte",
        "location": "Libjo (Albor)",
        "zip": "8414"
    },
    {
        "city": "Suriagao del Norte",
        "location": "Loreto",
        "zip": "8415"
    },
    {
        "city": "Suriagao del Norte",
        "location": "Mainit",
        "zip": "8407"
    },
    {
        "city": "Suriagao del Norte",
        "location": "Malimano",
        "zip": "8402"
    },
    {
        "city": "Suriagao del Norte",
        "location": "Pilar",
        "zip": "8420"
    },
    {
        "city": "Suriagao del Norte",
        "location": "Placer",
        "zip": "8405"
    },
    {
        "city": "Suriagao del Norte",
        "location": "San Benito",
        "zip": "8423"
    },
    {
        "city": "Suriagao del Norte",
        "location": "San Francisco",
        "zip": "8401"
    },
    {
        "city": "Suriagao del Norte",
        "location": "San Isidro",
        "zip": "8421"
    },
    {
        "city": "Suriagao del Norte",
        "location": "San Jose",
        "zip": "8427"
    },
    {
        "city": "Suriagao del Norte",
        "location": "Santa Monica",
        "zip": "8422"
    },
    {
        "city": "Suriagao del Norte",
        "location": "Sison",
        "zip": "8404"
    },
    {
        "city": "Suriagao del Norte",
        "location": "Socorro",
        "zip": "8416"
    },
    {
        "city": "Suriagao del Norte",
        "location": "Surigao City",
        "zip": "8400"
    },
    {
        "city": "Suriagao del Norte",
        "location": "Tagana-an",
        "zip": "8403"
    },
    {
        "city": "Suriagao del Norte",
        "location": "Tubajon",
        "zip": "8426"
    },
    {
        "city": "Suriagao del Norte",
        "location": "Tubod",
        "zip": "8406"
    },
    {
        "city": "Surigao del Sur",
        "location": "Barobo",
        "zip": "8309"
    },
    {
        "city": "Surigao del Sur",
        "location": "Bayabas",
        "zip": "8303"
    },
    {
        "city": "Surigao del Sur",
        "location": "Bislig",
        "zip": "8311"
    },
    {
        "city": "Surigao del Sur",
        "location": "Cagwait",
        "zip": "8311"
    },
    {
        "city": "Surigao del Sur",
        "location": "Cantillan",
        "zip": "8317"
    },
    {
        "city": "Surigao del Sur",
        "location": "Carmen",
        "zip": "8315"
    },
    {
        "city": "Surigao del Sur",
        "location": "Carrascal",
        "zip": "8318"
    },
    {
        "city": "Surigao del Sur",
        "location": "Cortez",
        "zip": "8313"
    },
    {
        "city": "Surigao del Sur",
        "location": "Hinatuan",
        "zip": "8310"
    },
    {
        "city": "Surigao del Sur",
        "location": "Lanuza",
        "zip": "8314"
    },
    {
        "city": "Surigao del Sur",
        "location": "Lianga",
        "zip": "8307"
    },
    {
        "city": "Surigao del Sur",
        "location": "Lingig",
        "zip": "8312"
    },
    {
        "city": "Surigao del Sur",
        "location": "Madrid",
        "zip": "8316"
    },
    {
        "city": "Surigao del Sur",
        "location": "Marihatag",
        "zip": "8306"
    },
    {
        "city": "Surigao del Sur",
        "location": "San Agustin",
        "zip": "8305"
    },
    {
        "city": "Surigao del Sur",
        "location": "San Miguel",
        "zip": "8301"
    },
    {
        "city": "Surigao del Sur",
        "location": "Tagbina",
        "zip": "8308"
    },
    {
        "city": "Surigao del Sur",
        "location": "Tago",
        "zip": "8302"
    },
    {
        "city": "Surigao del Sur",
        "location": "Tandag",
        "zip": "8300"
    },
    {
        "city": "Tawi Tawi",
        "location": "Balimbing",
        "zip": "7501"
    },
    {
        "city": "Tawi Tawi",
        "location": "Bongao",
        "zip": "7500"
    },
    {
        "city": "Tawi Tawi",
        "location": "Cagayan de Sulu",
        "zip": "7508"
    },
    {
        "city": "Tawi Tawi",
        "location": "Languyan",
        "zip": "7509"
    },
    {
        "city": "Tawi Tawi",
        "location": "Sapa-sapa",
        "zip": "7503"
    },
    {
        "city": "Tawi Tawi",
        "location": "Simunol",
        "zip": "7505"
    },
    {
        "city": "Tawi Tawi",
        "location": "Sitangkai",
        "zip": "7506"
    },
    {
        "city": "Tawi Tawi",
        "location": "South Ubian",
        "zip": "7504"
    },
    {
        "city": "Tawi Tawi",
        "location": "Taganak (Turtle Island)",
        "zip": "7507"
    },
    {
        "city": "Tawi Tawi",
        "location": "Tandu Bas",
        "zip": "7502"
    },
    {
        "city": "Zamboanga del Norte",
        "location": "Baliguian",
        "zip": "7123"
    },
    {
        "city": "Zamboanga del Norte",
        "location": "Dapitan City",
        "zip": "7101"
    },
    {
        "city": "Zamboanga del Norte",
        "location": "Dipolog City",
        "zip": "7100"
    },
    {
        "city": "Zamboanga del Norte",
        "location": "Gutalac",
        "zip": "7108"
    },
    {
        "city": "Zamboanga del Norte",
        "location": "Jose Dalman (Ponot)",
        "zip": "7111"
    },
    {
        "city": "Zamboanga del Norte",
        "location": "Kalawit",
        "zip": "7124"
    },
    {
        "city": "Zamboanga del Norte",
        "location": "Katipunan",
        "zip": "7109"
    },
    {
        "city": "Zamboanga del Norte",
        "location": "Labason",
        "zip": "7117"
    },
    {
        "city": "Zamboanga del Norte",
        "location": "La Libertad",
        "zip": "7119"
    },
    {
        "city": "Zamboanga del Norte",
        "location": "Liloy",
        "zip": "7115"
    },
    {
        "city": "Zamboanga del Norte",
        "location": "Manukan",
        "zip": "7110"
    },
    {
        "city": "Zamboanga del Norte",
        "location": "Mutia",
        "zip": "7107"
    },
    {
        "city": "Zamboanga del Norte",
        "location": "Pinan",
        "zip": "7105"
    },
    {
        "city": "Zamboanga del Norte",
        "location": "Polanco",
        "zip": "7106"
    },
    {
        "city": "Zamboanga del Norte",
        "location": "Rizal",
        "zip": "7104"
    },
    {
        "city": "Zamboanga del Norte",
        "location": "Roxas",
        "zip": "7102"
    },
    {
        "city": "Zamboanga del Norte",
        "location": "Salug",
        "zip": "7114"
    },
    {
        "city": "Zamboanga del Norte",
        "location": "Sergio Osmena",
        "zip": "7108"
    },
    {
        "city": "Zamboanga del Norte",
        "location": "Siayan",
        "zip": "7113"
    },
    {
        "city": "Zamboanga del Norte",
        "location": "Sibuco",
        "zip": "7122"
    },
    {
        "city": "Zamboanga del Norte",
        "location": "Sibutad",
        "zip": "7103"
    },
    {
        "city": "Zamboanga del Norte",
        "location": "Sindangan",
        "zip": "7112"
    },
    {
        "city": "Zamboanga del Norte",
        "location": "Siocon",
        "zip": "7120"
    },
    {
        "city": "Zamboanga del Norte",
        "location": "Siraway",
        "zip": "7121"
    },
    {
        "city": "Zamboanga del Norte",
        "location": "Tampilisan",
        "zip": "7116"
    },
    {
        "city": "Zamboanga del Sur",
        "location": "Alicia",
        "zip": "7040"
    },
    {
        "city": "Zamboanga del Sur",
        "location": "Aurora",
        "zip": "7020"
    },
    {
        "city": "Zamboanga del Sur",
        "location": "Bayog",
        "zip": "7011"
    },
    {
        "city": "Zamboanga del Sur",
        "location": "Buug",
        "zip": "7009"
    },
    {
        "city": "Zamboanga del Sur",
        "location": "Dimataling",
        "zip": "7032"
    },
    {
        "city": "Zamboanga del Sur",
        "location": "Dinas",
        "zip": "7030"
    },
    {
        "city": "Zamboanga del Sur",
        "location": "Diplahan",
        "zip": "7039"
    },
    {
        "city": "Zamboanga del Sur",
        "location": "Don Mariano Marcos",
        "zip": "7022"
    },
    {
        "city": "Zamboanga del Sur",
        "location": "Dumalinao",
        "zip": "7015"
    },
    {
        "city": "Zamboanga del Sur",
        "location": "Dumingag",
        "zip": "7028"
    },
    {
        "city": "Zamboanga del Sur",
        "location": "Guipos",
        "zip": "7042"
    },
    {
        "city": "Zamboanga del Sur",
        "location": "Imelda",
        "zip": "7007"
    },
    {
        "city": "Zamboanga del Sur",
        "location": "Ipil",
        "zip": "7001"
    },
    {
        "city": "Zamboanga del Sur",
        "location": "Josefina",
        "zip": "7027"
    },
    {
        "city": "Zamboanga del Sur",
        "location": "Kabasalan",
        "zip": "7005"
    },
    {
        "city": "Zamboanga del Sur",
        "location": "Kumalarang",
        "zip": "7013"
    },
    {
        "city": "Zamboanga del Sur",
        "location": "Labangan",
        "zip": "7017"
    },
    {
        "city": "Zamboanga del Sur",
        "location": "Lakewood",
        "zip": "7014"
    },
    {
        "city": "Zamboanga del Sur",
        "location": "Lapuyan",
        "zip": "7037"
    },
    {
        "city": "Zamboanga del Sur",
        "location": "Mabuhay",
        "zip": "7010"
    },
    {
        "city": "Zamboanga del Sur",
        "location": "Mahayag",
        "zip": "7026"
    },
    {
        "city": "Zamboanga del Sur",
        "location": "Malangas",
        "zip": "7038"
    },
    {
        "city": "Zamboanga del Sur",
        "location": "Margo Sa Tubig",
        "zip": "7035"
    },
    {
        "city": "Zamboanga del Sur",
        "location": "Midsalip",
        "zip": "7021"
    },
    {
        "city": "Zamboanga del Sur",
        "location": "Molave",
        "zip": "7023"
    },
    {
        "city": "Zamboanga del Sur",
        "location": "Naga",
        "zip": "7004"
    },
    {
        "city": "Zamboanga del Sur",
        "location": "Olutanga",
        "zip": "7041"
    },
    {
        "city": "Zamboanga del Sur",
        "location": "Pagadian City",
        "zip": "7016"
    },
    {
        "city": "Zamboanga del Sur",
        "location": "Payao",
        "zip": "7008"
    },
    {
        "city": "Zamboanga del Sur",
        "location": "Pitogo",
        "zip": "7033"
    },
    {
        "city": "Zamboanga del Sur",
        "location": "Ramon Magsaysay",
        "zip": "7024"
    },
    {
        "city": "Zamboanga del Sur",
        "location": "Reseller Lim",
        "zip": "7002"
    },
    {
        "city": "Zamboanga del Sur",
        "location": "San Miguel",
        "zip": "7029"
    },
    {
        "city": "Zamboanga del Sur",
        "location": "San Pablo",
        "zip": "7031"
    },
    {
        "city": "Zamboanga del Sur",
        "location": "Siay",
        "zip": "7006"
    },
    {
        "city": "Zamboanga del Sur",
        "location": "Tabina",
        "zip": "7034"
    },
    {
        "city": "Zamboanga del Sur",
        "location": "Talusan",
        "zip": "7012"
    },
    {
        "city": "Zamboanga del Sur",
        "location": "Tambulig",
        "zip": "7025"
    },
    {
        "city": "Zamboanga del Sur",
        "location": "Tigbad",
        "zip": "7043"
    },
    {
        "city": "Zamboanga del Sur",
        "location": "Titay",
        "zip": "7003"
    },
    {
        "city": "Zamboanga del Sur",
        "location": "Tukuran",
        "zip": "7019"
    },
    {
        "city": "Zamboanga del Sur",
        "location": "Tungawan",
        "zip": "7018"
    },
    {
        "city": "Zamboanga del Sur",
        "location": "Vicencio Sagun",
        "zip": "7036"
    },
    {
        "city": "Zamboanga del Sur",
        "location": "Zamboanga City",
        "zip": "7000"
    }
]